zip,city,state
18915,Moorestown Township,Pennsylvania
39702,Hattiesburg,Mississippi
33781,Deltona,Florida
36203,null,Alabama
8753,Jersey City,New Jersey
30066,Lawrenceville,Georgia
34667,Brandon,Florida
48634,Traverse City,Michigan
29376,null,South Carolina
32771,Fort Lauderdale,Florida
7104,Hamburg,New Jersey
34207,South Sanford,Florida
32534,Foley,Florida
29456,Charlotte,South Carolina
23901,Farmville,Virginia
32809,Winter Park,Florida
77373,Spring,Texas
32773,Orlando,Florida
30134,Lithia Springs,Georgia
27607,Marietta,North Carolina
32809,Winter Garden,Florida
29407,Summerville,South Carolina
30040,null,Georgia
18915,Plymouth Meeting,Pennsylvania
30341,New Albany,Georgia
28792,Candler,North Carolina
28358,Fayetteville,North Carolina
32609,Boulder,Florida
37115,Lebanon,Tennessee
29053,Summerville,South Carolina
32055,null,Florida
34471,Callahan,Florida
39702,Starkville,Mississippi
27604,Mugla,North Carolina
28412,Carolina Beach,North Carolina
22302,Clinton,Virginia
27603,Colonial Heights,North Carolina
39209,Jackson,Mississippi
39051,Marietta,Mississippi
77034,Valencia,Texas
36701,null,Alabama
34207,San Bruno,Florida
28311,Asheboro,North Carolina
39051,Jackson,Mississippi
37421,Ringgold,Tennessee
32503,Atmore,Florida
29170,null,South Carolina
16830,Clearfield,Pennsylvania
48603,Madison,Michigan
50131,Union,Iowa
38063,Olive Branch,Tennessee
30060,Secaucus,Georgia
33908,Hyannis,Florida
29566,North Myrtle Beach,South Carolina
29801,Aiken,South Carolina
30824,Campbell,Georgia
33064,Hollywood,Florida
29609,Hermitage,South Carolina
94087,Los Altos,California
22302,Manassas,Virginia
46614,null,Indiana
61053,Clinton,Illinois
39051,Carthage,Mississippi
32534,Biloxi,Florida
30035,Hartwell,Georgia
29169,Mooresville,South Carolina
37421,Krakow,Tennessee
32405,Vero Beach,Florida
36420,null,Alabama
27610,Cary,North Carolina
34787,Kissimmee,Florida
31313,null,Georgia
36606,null,Alabama
39531,New Orleans,Mississippi
31419,Springfield,Georgia
32771,Orlando,Florida
27288,Charlotte,North Carolina
30120,Acworth,Georgia
32776,Apopka,Florida
30075,Dublin,Georgia
33825,Lehigh Acres,Florida
85034,Ann Arbor,Arizona
32626,Moscow,Florida
35756,Madison,Alabama
36830,Montgomery,Alabama
30052,Greenwood,Georgia
30253,Stockbridge,Georgia
27520,Lumberton,North Carolina
27030,Rural Hall,North Carolina
72956,null,Arkansas
33709,Largo,Florida
35661,Chicago,Alabama
30223,Sarasota,Georgia
46038,Belgrade,Indiana
45373,Normal,Ohio
32609,Apopka,Florida
29170,Cupertino,South Carolina
33809,Lakeland,Florida
29730,Augusta,South Carolina
25526,Hurricane,West Virginia
32211,Jacksonville,Florida
33770,Summerfield,Florida
33770,Bardstown,Florida
18915,Collegeville,Pennsylvania
30360,Cumming,Georgia
39648,New Orleans,Mississippi
23455,Unorganized Territory of Camp Lejeune,Virginia
32084,null,Florida
33916,Aurora,Florida
30188,Gainesville,Georgia
37167,Smyrna,Tennessee
48603,Grand Ledge,Michigan
28578,Greenville,North Carolina
27030,Charlottesville,North Carolina
32771,Apopka,Florida
35117,null,Alabama
35080,null,Alabama
48603,East Lansing,Michigan
39208,Smithville,Mississippi
33781,Hialeah,Florida
22302,Springfield,Virginia
29609,Mount Airy,South Carolina
32244,York,Florida
28717,Hamilton,North Carolina
61081,Dixon,Illinois
27604,Louisville,North Carolina
39531,Baton Rouge,Mississippi
30060,Woodstock,Georgia
39503,Slidell,Mississippi
30906,Augusta,Georgia
33513,null,Florida
33901,Fort Myers,Florida
27028,Mocksville,North Carolina
31313,Charlotte,Georgia
61455,Austin,Illinois
30046,Newnan,Georgia
31217,Ellenwood,Georgia
33781,North Port,Florida
30434,Evans,Georgia
32822,Smithfield,Florida
18915,Upper Marlboro,Pennsylvania
34207,Largo,Florida
32571,Niceville,Florida
61455,Livonia,Illinois
33770,Wakefield,Florida
34207,Land O' Lakes,Florida
27025,Kannapolis,North Carolina
30060,Jamestown,Georgia
29577,Little River,South Carolina
29732,Belgrade,South Carolina
8210,Absecon,New Jersey
27603,Goldsboro,North Carolina
77065,Katy,Texas
7104,Saratoga Springs,New Jersey
48603,Houghton Lake,Michigan
29053,Lexington,South Carolina
35117,Cullman,Alabama
65803,Springfield,Missouri
35816,New Market,Alabama
7104,Mattawan,New Jersey
36606,Houston,Alabama
32824,Altamonte Springs,Florida
31503,Jesup,Georgia
64116,Kearney,Missouri
48603,Freeland,Michigan
28358,Marietta,North Carolina
33781,Orlando,Florida
60173,Chicago,Illinois
29651,Spartanburg,South Carolina
29407,Bluffton,South Carolina
30253,McDonough,Georgia
36606,Daphne,Alabama
27513,Richmond,North Carolina
32503,Cantonment,Florida
39702,Memphis,Mississippi
71282,Homer,Louisiana
62801,Centralia,Illinois
65803,null,Missouri
28461,Pune,North Carolina
48603,San Jos√©,Michigan
28092,Huntersville,North Carolina
37660,Tazewell,Tennessee
39056,Clinton,Mississippi
36567,Athens,Alabama
32114,Daytona Beach,Florida
29461,Charleston,South Carolina
30742,Rome,Georgia
7104,Garfield,New Jersey
32246,Pensacola,Florida
32303,Panama City,Florida
62801,West Frankfort,Illinois
49015,Saginaw,Michigan
32060,Lake City,Florida
36420,Andalusia,Alabama
28806,Seneca,North Carolina
36606,Panama City Beach,Alabama
30135,Lancaster,Georgia
39301,Atlanta,Mississippi
31788,null,Georgia
30650,Atlanta,Georgia
32922,null,Florida
32444,Archer,Florida
32064,High Springs,Florida
30024,Duluth,Georgia
25526,null,West Virginia
22302,Woodbridge,Virginia
34207,Fort Myers,Florida
33709,Altamonte Springs,Florida
67207,Concordia,Kansas
30080,Atlanta,Georgia
45011,null,Ohio
30337,Antioch,Georgia
28412,Longs,North Carolina
48603,Willoughby,Michigan
34135,Marion,Florida
8037,Woodlyn,New Jersey
30721,Hixson,Georgia
34614,Tampa,Florida
34243,Lakeland,Florida
29651,Ellenwood,South Carolina
36870,Erin,Alabama
35653,Lincolnshire,Alabama
2653,Saco,Massachusetts
29607,Simpsonville,South Carolina
27262,Winston-Salem,North Carolina
39073,Metairie,Mississippi
32805,DeLand,Florida
30141,McDonough,Georgia
42134,Riverton,Kentucky
29720,Jefferson City,South Carolina
37421,Charleston,Tennessee
30075,Chattanooga,Georgia
30721,Dawsonville,Georgia
31503,Savannah,Georgia
36203,Alexander City,Alabama
8753,Toms River,New Jersey
39503,Denham Springs,Mississippi
7104,Morrisville,New Jersey
34207,Franklin,Florida
36618,Houma,Alabama
60173,Oak Forest,Illinois
48603,Crystal,Michigan
36526,Miramar Beach,Alabama
34207,Pompano Beach,Florida
27596,Fayetteville,North Carolina
30040,Mahwah,Georgia
30297,null,Georgia
30096,Gastonia,Georgia
92675,Redding,California
36526,Atlanta,Alabama
27513,Greensboro,North Carolina
32578,Cantonment,Florida
20176,Seaford,Virginia
32304,Crawfordville,Florida
7104,South Amboy,New Jersey
53045,Anamosa,Wisconsin
29728,Brooklyn,South Carolina
32244,Ponte Vedra Beach,Florida
30434,Elk Grove Village,Georgia
34744,Miami,Florida
31324,Hinesville,Georgia
48603,Frankenmuth,Michigan
39503,null,Mississippi
28601,Belmont,North Carolina
35501,Jasper,Alabama
33714,Tampa,Florida
33023,Fort Lauderdale,Florida
24450,Altavista,Virginia
32571,Franklin,Florida
31503,Hazlehurst,Georgia
34207,Kiel,Florida
77338,Humble,Texas
22302,Greater Capitol Heights,Virginia
34684,Saint Petersburg,Florida
30066,Covington,Georgia
62863,Marion,Illinois
29016,Blythewood,South Carolina
29316,Spartanburg,South Carolina
33844,Haines City,Florida
48603,Burton,Michigan
78757,Waco,Texas
46123,Belgrade,Indiana
22312,Waldorf,Virginia
29053,Marietta,South Carolina
32060,High Springs,Florida
32771,Ocoee,Florida
32805,null,Florida
48603,Bridgeport,Michigan
29801,Columbia,South Carolina
33614,Tampa,Florida
48603,Marlette,Michigan
32244,Miami,Florida
32505,Baton Rouge,Florida
29609,Easley,South Carolina
30064,Mableton,Georgia
18915,Philadelphia,Pennsylvania
48603,Saint Louis,Michigan
18915,Newton,Pennsylvania
32208,Jacksonville,Florida
34638,Lakeland,Florida
34207,Boca Raton,Florida
31216,Monticello,Georgia
7104,Miami,New Jersey
31407,Redmond,Georgia
8210,Villas,New Jersey
35555,Birmingham,Alabama
25526,Redmond,West Virginia
30016,null,Georgia
33708,null,Florida
33612,Winter Haven,Florida
29730,Greenwood,South Carolina
27603,Chester,North Carolina
32505,Daphne,Florida
33982,Far Rockaway,Florida
7104,Brooklyn,New Jersey
7104,Springfield Gardens,New Jersey
62801,Mt. Vernon,Illinois
34638,Land O' Lakes,Florida
38127,Jonesboro,Tennessee
72401,Clyman,Arkansas
34243,Palmetto,Florida
34207,Hollywood,Florida
53546,De Forest,Wisconsin
32534,Denver,Florida
32311,Blountstown,Florida
28110,Charlotte,North Carolina
35501,Madison,Alabama
27262,Lexington,North Carolina
28403,Supply,North Carolina
30747,Rome,Georgia
33603,Saint Petersburg,Florida
28540,Morehead City,North Carolina
40047,Evansville,Kentucky
48603,Oxford,Michigan
18915,Wayne,Pennsylvania
34638,null,Florida
34448,Homosassa,Florida
33908,Orlando,Florida
28394,null,North Carolina
30721,Dalton,Georgia
48640,Bay City,Michigan
8037,Williamstown,New Jersey
35954,Sylacauga,Alabama
33604,null,Florida
28752,Marshall,North Carolina
33982,Owego,Florida
31419,Kenly,Georgia
72956,Fort Smith,Arkansas
40219,Erlanger,Kentucky
39507,Hattiesburg,Mississippi
30064,Pittsburgh,Georgia
32907,Melbourne,Florida
28202,Belgrade,North Carolina
48603,Volgograd,Michigan
29169,Mullins,South Carolina
77034,Beaumont,Texas
33709,Jacksonville,Florida
27262,null,North Carolina
8210,Portage,New Jersey
27604,Wilson,North Carolina
43912,Macedonia,Ohio
29418,Round O,South Carolina
27284,Greensboro,North Carolina
30531,Cornelia,Georgia
37876,Sevierville,Tennessee
24416,null,Virginia
36619,Jackson,Alabama
36526,Grand Prairie,Alabama
29501,Charlotte,South Carolina
29150,Hartsville,South Carolina
30024,Stone Mountain,Georgia
75142,Athens,Texas
32446,null,Florida
32771,Miami,Florida
29651,Charlotte,South Carolina
92675,Corona,California
30016,Smyrna,Georgia
34668,Tampa,Florida
34207,Hialeah,Florida
29728,Patrick,South Carolina
29456,Johns Island,South Carolina
33604,Kuwait City,Florida
7104,Fairburn,New Jersey
34471,Dunnellon,Florida
29607,Asheville,South Carolina
34207,Brooklyn,Florida
32534,Ocean Springs,Florida
37421,Lenoir City,Tennessee
36606,Milton,Alabama
37421,San Diego,Tennessee
30360,La Grange,Georgia
30528,Fairburn,Georgia
31023,Ambrose,Georgia
34207,Tampa,Florida
36801,null,Alabama
45246,Fairfield,Ohio
30084,Lithia Springs,Georgia
28906,null,North Carolina
32609,Lady Lake,Florida
28677,Fort Mill,North Carolina
27513,Apex,North Carolina
32246,Fort Lauderdale,Florida
28806,Franklin,North Carolina
27529,Fuquay-Varina,North Carolina
30168,Marietta,Georgia
34207,Lansing,Florida
29732,Asheville,South Carolina
30093,Cleveland,Georgia
77373,Huntsville,Texas
32254,Orange Park,Florida
28083,Concord,North Carolina
28540,Wilmington,North Carolina
34689,Northbrook,Florida
30076,Atlanta,Georgia
48603,Sherman,Michigan
30067,Marietta,Georgia
35810,Huntsville,Alabama
30747,Summerville,Georgia
32301,Lorain,Florida
32205,null,Florida
28792,Medford,North Carolina
38330,Memphis,Tennessee
36619,Braxton,Alabama
27262,Trinity,North Carolina
32164,Waterbury,Florida
36608,Loxley,Alabama
39531,Pascagoula,Mississippi
46038,Monon,Indiana
63376,Belgrade,Missouri
30060,Lithia Springs,Georgia
27604,Fayetteville,North Carolina
8210,Egg Harbor,New Jersey
36863,null,Alabama
64116,Lake Ozark,Missouri
67601,Red Cloud,Kansas
39531,Slidell,Mississippi
36203,Old Hickory,Alabama
60002,Anamosa,Illinois
28358,null,North Carolina
61455,Petersburg,Illinois
30458,Statesboro,Georgia
34748,Apopka,Florida
36608,Fairhope,Alabama
28906,Morganton,North Carolina
27357,Kannapolis,North Carolina
29566,null,South Carolina
49015,Lansing,Michigan
22302,Stafford,Virginia
27215,Seagrove,North Carolina
27105,Walkertown,North Carolina
31601,Frankford,Georgia
34208,null,Florida
30024,Atlanta,Georgia
33708,Sarasota,Florida
53045,Hartland,Wisconsin
36545,null,Alabama
29609,Winnsboro,South Carolina
80303,Denver,Colorado
4072,Buxton,Maine
30742,Jasper,Georgia
28115,null,North Carolina
29407,Johns Island,South Carolina
27262,Summerfield,North Carolina
29053,Fayetteville,South Carolina
30337,Atlanta,Georgia
7104,Columbia,New Jersey
30060,Chickamauga,Georgia
30736,Blue Ridge,Georgia
34207,Quincy,Florida
31204,Myrtle Beach,Georgia
39507,Ocean Springs,Mississippi
30060,Lilburn,Georgia
37421,Chattanooga,Tennessee
18915,Sellersville,Pennsylvania
18915,Hatfield,Pennsylvania
30075,Pell City,Georgia
29526,null,South Carolina
30055,Moultrie,Georgia
33604,Holiday,Florida
31545,Potomac,Georgia
38024,Milan,Tennessee
30121,Atlanta,Georgia
30319,Atlanta,Georgia
33781,Naples,Florida
30263,Fairburn,Georgia
27106,Clemmons,North Carolina
48603,Sterling Heights,Michigan
32060,Inverness,Florida
38122,null,Tennessee
30110,Madison,Georgia
33166,null,Florida
48603,Watertown,Michigan
30080,null,Georgia
30248,Greenville,Georgia
30046,Moultrie,Georgia
35565,null,Alabama
35085,Opelika,Alabama
27262,Rock Hill,North Carolina
28625,Matthews,North Carolina
8753,Browns Mills,New Jersey
34207,Lake Mary,Florida
28303,Albemarle,North Carolina
48603,Marshfield,Michigan
20176,Ashburn,Virginia
33566,null,Florida
30097,null,Georgia
30040,Franklin,Georgia
37211,null,Tennessee
48603,Moscow,Michigan
33912,North Fort Myers,Florida
33912,Tampa,Florida
44130,Painesville,Ohio
4072,Orono,Maine
92675,San Diego,California
53115,Benton,Wisconsin
15216,Pittsburgh,Pennsylvania
32822,Lakeland,Florida
38583,Crossville,Tennessee
34205,null,Florida
35570,null,Alabama
34233,Sarasota,Florida
27513,Holly Springs,North Carolina
1852,Tyngsboro,Massachusetts
29645,Dunn,South Carolina
30909,Columbia,Georgia
27703,Northbridge,North Carolina
37040,Ashland City,Tennessee
60173,Northbrook,Illinois
28214,Fort Mill,North Carolina
34669,Tampa,Florida
33770,Safety Harbor,Florida
31220,Lawrenceville,Georgia
34669,Saint Petersburg,Florida
34748,Lady Lake,Florida
48603,Baltimore,Michigan
42134,Bremen,Kentucky
32809,Bentonville,Florida
30075,Decatur,Georgia
2767,Middleboro,Massachusetts
34239,Waycross,Florida
30075,Stone Mountain,Georgia
34207,Ruskin,Florida
34207,Odessa,Florida
33440,null,Florida
28027,Little River,North Carolina
48603,Onsted,Michigan
27263,Minneapolis,North Carolina
2767,Waterbury,Massachusetts
33903,Miami,Florida
31032,Louisville,Georgia
32405,Panama City,Florida
32609,Gainesville,Florida
32771,Summerfield,Florida
30341,San Salvador,Georgia
33032,Homestead,Florida
47441,null,Indiana
33880,Kissimmee,Florida
33614,Lake City,Florida
30066,Decatur,Georgia
48603,Clare,Michigan
28303,Raeford,North Carolina
32750,Orlando,Florida
31794,null,Georgia
30534,Aberdeen,Georgia
34974,Orlando,Florida
30907,Stone Mountain,Georgia
8232,Parkville,New Jersey
34207,Alexandria,Florida
28097,Waynesboro,North Carolina
37055,Charlotte,Tennessee
48603,Brighton,Michigan
31501,null,Georgia
34471,Lake City,Florida
64503,Kansas City,Missouri
33415,Lakeland,Florida
27028,Mount Airy,North Carolina
39507,Gulfport,Mississippi
32566,Destin,Florida
36608,Pensacola,Alabama
67207,Wichita,Kansas
30122,null,Georgia
27526,Apex,North Carolina
28546,Brooklyn,North Carolina
7104,Randolph Township,New Jersey
7104,Columbus,New Jersey
30540,Albertville,Georgia
96814,Oak Harbor,Hawaii
39823,Bluffton,Georgia
30360,Goldsboro,Georgia
31548,Hoboken,Georgia
18915,Herndon,Pennsylvania
33610,Riverview,Florida
31602,Lincoln,Georgia
30458,Hanceville,Georgia
33810,St. Augustine,Florida
30742,Rossville,Georgia
30071,Lawrenceville,Georgia
31533,Douglas,Georgia
29536,Bennettsville,South Carolina
40701,Annville,Kentucky
29526,Chattanooga,South Carolina
30055,Griffin,Georgia
27513,Durham,North Carolina
30035,Powder Springs,Georgia
3051,Westbrook,New Hampshire
2767,Hyannis,Massachusetts
89502,Nevada City,Nevada
30126,Jonesboro,Georgia
29526,Berkeley,South Carolina
29645,Anderson,South Carolina
72956,Elizabethtown,Arkansas
7104,Hoboken,New Jersey
31503,Valdosta,Georgia
77578,Pearland,Texas
29732,Gaffney,South Carolina
27526,Raleigh,North Carolina
35555,Guntown,Alabama
29649,Richlands,South Carolina
77598,Spring,Texas
48603,Sezemice,Michigan
53051,Madison,Wisconsin
32713,null,Florida
33781,Ellenwood,Florida
35242,Birmingham,Alabama
32839,Sebring,Florida
33770,Cape Coral,Florida
48603,Swartz Creek,Michigan
30093,McDonough,Georgia
39056,Germantown,Mississippi
48603,Ypsilanti,Michigan
81004,Pueblo,Colorado
60106,Chicago,Illinois
77034,Boca Raton,Texas
31206,Macon,Georgia
34238,Plant City,Florida
30223,Columbus,Georgia
48603,Grand Blanc,Michigan
30093,Helsinki,Georgia
30093,Stone Mountain,Georgia
22302,Charlotte,Virginia
53045,Deerfield,Wisconsin
60106,Woodstock,Illinois
67207,Wyoming,Kansas
30909,North Augusta,Georgia
32703,Ocoee,Florida
67211,Wichita,Kansas
7104,Livingston Manor,New Jersey
30606,Atlanta,Georgia
8210,Quakertown,New Jersey
36608,Redmond,Alabama
27592,Clemmons,North Carolina
63376,Grandview,Missouri
33619,New Port Richey,Florida
32084,London,Florida
28105,Durham,North Carolina
27592,Wake Forest,North Carolina
29607,Charlotte,South Carolina
39823,Albany,Georgia
27603,Pink Hill,North Carolina
29649,Laurens,South Carolina
30747,Jasper,Georgia
32055,Jasper,Florida
32506,Columbia,Florida
36606,Long Beach,Alabama
28806,Candler,North Carolina
29730,Rock Hill,South Carolina
64116,Overland Park,Missouri
32246,Tallahassee,Florida
77373,Houston,Texas
32505,Mobile,Florida
74145,Sand Springs,Oklahoma
53051,Menomonee Falls,Wisconsin
74145,Jenks,Oklahoma
27104,Charlotte,North Carolina
27513,Chapel Hill,North Carolina
29715,Clover,South Carolina
14220,Hudson,New York
27604,Norfolk,North Carolina
30115,Six Mile,Georgia
96819,null,Hawaii
37421,Bealeton,Tennessee
30096,Buford,Georgia
29526,Ruffin,South Carolina
37421,Roseland,Tennessee
33566,Lakeland,Florida
39201,null,Mississippi
30046,Long Island City,Georgia
67207,null,Kansas
39507,Mabelvale,Mississippi
32043,Jacksonville,Florida
4072,Sabattus,Maine
39301,Hot Springs Village,Mississippi
27858,null,North Carolina
28043,Goldston,North Carolina
72801,'Aiea,Arkansas
7104,Westfield,New Jersey
27604,null,North Carolina
30052,Miami,Georgia
27529,null,North Carolina
30060,Clemmons,Georgia
77034,Pearland,Texas
22046,Washington,Virginia
27592,null,North Carolina
29170,Ladson,South Carolina
18915,Bryn Mawr,Pennsylvania
35405,Marion,Alabama
7104,Montrose,New Jersey
45246,West Chester,Ohio
39056,Hattiesburg,Mississippi
30906,Swainsboro,Georgia
36116,null,Alabama
24572,Lynchburg,Virginia
30060,Franklin,Georgia
30606,Verbena,Georgia
50131,Council Bluffs,Iowa
30655,McDonough,Georgia
33844,Winter Haven,Florida
38583,Monroe,Tennessee
33064,null,Florida
29829,Augusta,South Carolina
34481,Gainesville,Florida
27403,Mocksville,North Carolina
33770,Lynn Haven,Florida
29325,Abbeville,South Carolina
8210,Bridgeton,New Jersey
60173,Bloomington,Illinois
35117,Warrior,Alabama
18915,Conshohocken,Pennsylvania
8753,Brick Township,New Jersey
7104,Gaithersburg,New Jersey
48603,Romulus,Michigan
34753,Winter Park,Florida
30223,Jackson,Georgia
48603,Lake Zurich,Michigan
37814,Morristown,Tennessee
28358,Rougemont,North Carolina
36110,Montgomery,Alabama
31204,Union City,Georgia
30534,Cumming,Georgia
2132,South Portland,Massachusetts
29170,Little River,South Carolina
31501,Nahunta,Georgia
7104,Mamaroneck,New Jersey
86326,Boulder,Arizona
27592,Clayton,North Carolina
30474,Ocilla,Georgia
7104,New Brunswick,New Jersey
34207,Northbridge,Florida
30040,Dalton,Georgia
33064,Hialeah,Florida
33770,North Liberty,Florida
29570,Gaston,South Carolina
7104,Edison,New Jersey
45373,Dayton,Ohio
4072,Freeport,Maine
33903,Akron,Florida
10994,Burlington,New York
48603,Lachine,Michigan
36526,Gonzalez,Alabama
32809,Longwood,Florida
48603,Elk Grove Village,Michigan
33781,St. Augustine,Florida
27262,Smithfield,North Carolina
32114,Port Orange,Florida
31216,Milledgeville,Georgia
48640,Midland,Michigan
28806,Benton,North Carolina
32208,Miami,Florida
7104,East Brunswick,New Jersey
35080,Rainsville,Alabama
31021,null,Georgia
33625,null,Florida
34481,Brandon,Florida
39531,Fort Lee,Mississippi
33762,Louisville,Florida
24210,Abingdon,Virginia
32907,Palm Bay,Florida
32771,Wilmington,Florida
34669,Kissimmee,Florida
35816,Vicksburg,Alabama
33708,New Port Richey,Florida
29566,Charlotte,South Carolina
77802,Oak Creek,Texas
37115,Goodlettsville,Tennessee
33770,Seaford,Florida
32566,Navarre,Florida
29376,Boiling Springs,South Carolina
32824,Titusville,Florida
34207,Cordova,Florida
27616,Raleigh,North Carolina
27262,Hillsborough,North Carolina
28677,Statesville,North Carolina
37421,Salisbury,Tennessee
29316,Buford,South Carolina
22312,Bristow,Virginia
29732,Lawrenceville,South Carolina
28412,Southport,North Carolina
33513,Winter Park,Florida
33880,Indiana,Florida
30035,Norcross,Georgia
28110,Indian Trail,North Carolina
32405,null,Florida
32720,DeLand,Florida
32809,Kissimmee,Florida
32303,Tallahassee,Florida
36567,Foley,Alabama
30736,Dayton,Georgia
29376,Seneca,South Carolina
29445,null,South Carolina
30248,Sharpsburg,Georgia
36606,Orlando,Alabama
39507,Milwaukee,Mississippi
30281,Brooklyn,Georgia
48603,Englewood,Michigan
36203,Erin,Alabama
29730,Goose Creek,South Carolina
30909,Charlotte,Georgia
33714,Largo,Florida
23901,null,Virginia
29803,Grovetown,South Carolina
28273,Charlotte,North Carolina
8037,Menlo Park,New Jersey
8753,Yonkers,New Jersey
33777,Dunedin,Florida
42420,Hopkinsville,Kentucky
31061,Macon,Georgia
33982,Lehigh Acres,Florida
31408,null,Georgia
33619,Apopka,Florida
30117,Duluth,Georgia
29720,Clover,South Carolina
30742,Westminster,Georgia
22046,null,Virginia
46123,Plainfield,Indiana
29526,Florence,South Carolina
61053,Mount Morris,Illinois
34207,Estero,Florida
29501,Lexington,South Carolina
32626,Tifton,Florida
33770,Kissimmee,Florida
29732,York,South Carolina
27030,Fayetteville,North Carolina
30341,Louisville,Georgia
32504,Mobile,Florida
33612,Damascus,Florida
29609,Chattanooga,South Carolina
30223,Atlanta,Georgia
33770,Wharton,Florida
23235,Richmond,Virginia
32244,Orange Park,Florida
37148,null,Tennessee
33578,Ruskin,Florida
29803,Edgefield,South Carolina
30046,Lilburn,Georgia
34601,Brooksville,Florida
37408,Rossville,Tennessee
30360,Austell,Georgia
32246,Apopka,Florida
32244,Tallahassee,Florida
32904,Melbourne,Florida
33060,Fort Lauderdale,Florida
33770,Las Vegas,Florida
27893,null,North Carolina
48603,Lakewood,Michigan
31503,Brunswick,Georgia
65251,Holden,Missouri
4072,Portland,Maine
33440,Clewiston,Florida
29609,Evans,South Carolina
18915,Oakhurst,Pennsylvania
62801,Breese,Illinois
31503,Alma,Georgia
48603,Cleveland,Michigan
30542,Athens,Georgia
48604,Bay City,Michigan
32218,Niceville,Florida
33513,Spring Hill,Florida
33604,Fort Myers,Florida
29512,Dillon,South Carolina
61053,Freeport,Illinois
28110,null,North Carolina
7104,Bethlehem,New Jersey
65648,Joplin,Missouri
48603,Mt. Morris,Michigan
77034,Salt Lake City,Texas
46254,Los Angeles,Indiana
30055,Snellville,Georgia
27604,Arlington Heights,North Carolina
30263,Riverdale,Georgia
22302,Ashburn,Virginia
27596,Smithfield,North Carolina
25526,Yawkey,West Virginia
30043,Lawrenceville,Georgia
28303,Wilmington,North Carolina
29732,null,South Carolina
34207,Phoenix,Florida
30080,Suwanee,Georgia
30055,Woodville,Georgia
29611,Byron,South Carolina
33860,Altamonte Springs,Florida
36116,Niceville,Alabama
34208,Lakeland,Florida
32216,null,Florida
28412,Wilmington,North Carolina
38024,Halls,Tennessee
34610,Sun City Center,Florida
28304,Four Oaks,North Carolina
36619,Grand Bay,Alabama
28717,Spartanburg,North Carolina
31008,Centerville,Georgia
50131,Omaha,Iowa
29611,Pickens,South Carolina
33860,Haines City,Florida
32808,Port Orange,Florida
36608,Montgomery,Alabama
28304,null,North Carolina
33916,Fort Myers,Florida
31407,St Louis,Georgia
30248,null,Georgia
94087,null,California
77338,Cypress,Texas
28806,Dawsonville,North Carolina
77083,Leander,Texas
23112,Richmond,Virginia
34481,Summerfield,Florida
89502,Stockton,Nevada
33613,Saint Petersburg,Florida
38237,Martin,Tennessee
7104,Nyack,New Jersey
29730,Charlotte,South Carolina
48603,Keego Harbor,Michigan
32117,Clearwater,Florida
31501,Waycross,Georgia
4072,Bar Harbor,Maine
36526,Spanish Fort,Alabama
67207,Tonkawa,Kansas
7104,Paterson,New Jersey
33912,Tallahassee,Florida
64116,Ozark,Missouri
50131,Bettendorf,Iowa
28601,Statesville,North Carolina
34207,Pinellas Park,Florida
27513,Zebulon,North Carolina
77065,Pomona,Texas
27357,Durham,North Carolina
30736,Soddy-Daisy,Georgia
36619,New Braunfels,Alabama
27215,Graham,North Carolina
30319,Duluth,Georgia
33612,Palmetto,Florida
92675,Mission Viejo,California
93101,Burbank,California
33612,Riverview,Florida
47441,Bloomington,Indiana
27127,Lexington,North Carolina
29803,Conyers,South Carolina
31407,Rincon,Georgia
7104,Suwanee,New Jersey
34638,Summerfield,Florida
48603,Clarkston,Michigan
32801,Melbourne Beach,Florida
48603,Southfield,Michigan
33903,Cape Coral,Florida
48603,White Cloud,Michigan
32505,Foley,Florida
53051,Amstetten,Wisconsin
29053,Columbia,South Carolina
34471,Decatur,Florida
32218,Destin,Florida
61053,Lena,Illinois
30016,Roswell,Georgia
53045,Waukesha,Wisconsin
34207,Kenosha,Florida
22302,Bowie,Virginia
28212,Matthews,North Carolina
23455,Elizabeth City,Virginia
29316,Atlanta,South Carolina
32506,Irmo,Florida
45373,Chambersburg,Ohio
34448,Spring Hill,Florida
34207,Tallinn,Florida
53045,Marathon,Wisconsin
32311,Tallahassee,Florida
30188,Woodstock,Georgia
22302,Burke,Virginia
32506,null,Florida
28401,Leland,North Carolina
34667,Milton,Florida
28904,Durham,North Carolina
34683,Largo,Florida
33908,Fort Myers,Florida
33908,Cape Coral,Florida
22302,Potomac,Virginia
29045,Sumter,South Carolina
32804,Gainesville,Florida
32578,DeFuniak Springs,Florida
34207,Jackson,Florida
30084,Loganville,Georgia
2132,null,Massachusetts
28205,Rostov-on-Don,North Carolina
32084,Branford,Florida
33781,Atlanta,Florida
33825,Bartow,Florida
77598,Mico,Texas
32578,Blountstown,Florida
33777,New York,Florida
37421,Muscle Shoals,Tennessee
37421,Aberdeen,Tennessee
48603,Battle Creek,Michigan
30040,Ellenwood,Georgia
29526,Conway,South Carolina
48603,Montrose,Michigan
73128,Washington,Oklahoma
7104,Mount Airy,New Jersey
34207,Dunedin,Florida
77578,League City,Texas
50131,Osceola,Iowa
28791,Franklin,North Carolina
33781,San Diego,Florida
33844,Tampa,Florida
7104,Tiffin,New Jersey
30096,Alpharetta,Georgia
28105,Charlotte,North Carolina
29730,Lancaster,South Carolina
20176,Bowie,Virginia
31533,Newark,Georgia
33440,Fort Lauderdale,Florida
29301,Redmond,South Carolina
22849,Clarks Summit,Virginia
27513,Cameron,North Carolina
34475,Grand Island,Florida
29445,Brooklyn,South Carolina
62801,Hot Springs Village,Illinois
34601,Ruskin,Florida
98229,Stayton,Washington
34207,Melbourne,Florida
23455,Virginia Beach,Virginia
29609,High Point,South Carolina
27105,Winston-Salem,North Carolina
29407,Richmond,South Carolina
28752,Marion,North Carolina
30071,Duluth,Georgia
80303,Boulder,Colorado
27332,Garner,North Carolina
27105,Kernersville,North Carolina
37421,Calhoun,Tennessee
31093,Marietta,Georgia
87035,Moriarty,New Mexico
48603,Gladwin,Michigan
29651,Greenville,South Carolina
39047,Ruston,Mississippi
37421,McMinnville,Tennessee
33709,Bradenton,Florida
33714,Pinellas Park,Florida
29730,Chester,South Carolina
33781,Miami,Florida
37920,Albertville,Tennessee
22302,Sterling,Virginia
33614,DeLand,Florida
34232,Sarasota,Florida
22312,Fairfax,Virginia
30040,Riverdale,Georgia
30040,Ball Ground,Georgia
34638,Largo,Florida
93101,Santa Barbara,California
27513,Morrisville,North Carolina
30263,Butler,Georgia
36526,Freeport,Alabama
33880,Miami,Florida
60173,null,Illinois
29732,Salisbury,South Carolina
7104,West Babylon,New Jersey
45246,New Castle,Ohio
38122,Cordova,Tennessee
32407,Waterloo,Florida
32578,Moscow,Florida
34669,Orlando,Florida
34475,null,Florida
30115,Guadalupe,Georgia
29505,Charlotte,South Carolina
7104,Troy,New Jersey
36606,Cantonment,Alabama
28412,Kelly,North Carolina
29483,Sumter,South Carolina
40219,null,Kentucky
29609,Conover,South Carolina
8210,Cape May,New Jersey
30046,Duluth,Georgia
34207,Parrish,Florida
36526,Satsuma,Alabama
33614,Dayton,Florida
33781,Tarpon Springs,Florida
39503,Gautier,Mississippi
28303,Charlottesville,North Carolina
77598,Salt Lake City,Texas
7104,Maple Shade,New Jersey
36608,Milton,Alabama
22302,Arlington,Virginia
37138,Paducah,Tennessee
31407,Springfield,Georgia
2132,Portsmouth,Massachusetts
30040,Lawrenceville,Georgia
28562,null,North Carolina
30115,Trenton,Georgia
45663,Alexander City,Ohio
61455,Des Moines,Illinois
63376,Florissant,Missouri
28146,Lexington,North Carolina
32244,Jacksonville,Florida
18915,Ambler,Pennsylvania
37115,Old Hickory,Tennessee
33770,Beverly Hills,Florida
21061,Wilmington,Maryland
53045,Milwaukee,Wisconsin
29730,Ellenwood,South Carolina
39531,Laurel,Mississippi
32771,DeLand,Florida
72801,null,Arkansas
30084,Stone Mountain,Georgia
22302,Waldorf,Virginia
27105,Charlotte,North Carolina
36203,Lincoln,Alabama
28806,Angier,North Carolina
30747,Dalton,Georgia
33032,Hollywood,Florida
35501,Fayetteville,Alabama
32609,Phoenix,Florida
77578,Sugar Land,Texas
39208,Jackson,Mississippi
28574,Clayton,North Carolina
45246,Harrison,Ohio
29609,Atlanta,South Carolina
48603,Ashley,Michigan
34207,Aguas Buenas,Florida
22849,Edinburg,Virginia
28806,Orlando,North Carolina
35405,Atlanta,Alabama
30093,Duluth,Georgia
33801,Lakeland,Florida
31217,Warner Robins,Georgia
36870,Midland,Alabama
71282,Houston,Louisiana
74145,Tulsa,Oklahoma
29728,Charlotte,South Carolina
32817,Kissimmee,Florida
32505,Monroeville,Florida
30540,Jasper,Georgia
31533,null,Georgia
34275,Lakeland,Florida
37323,Cleveland,Tennessee
32703,Apopka,Florida
32405,Lynn Haven,Florida
60173,Willow Springs,Illinois
34207,Ellenwood,Florida
37167,Gallatin,Tennessee
30907,Evans,Georgia
35016,Cullman,Alabama
32696,Altamonte Springs,Florida
33023,Hialeah,Florida
30319,Cleveland,Georgia
28212,Concord,North Carolina
32256,Jacksonville,Florida
87107,null,New Mexico
32804,Miami,Florida
33069,Goldsboro,Florida
27262,San Bruno,North Carolina
28405,null,North Carolina
36203,Fort Huachuaca,Alabama
33069,Hialeah,Florida
45246,Cincinnati,Ohio
30458,Waynesboro,Georgia
32216,Jacksonville,Florida
30263,Washington,Georgia
27028,null,North Carolina
30721,Jasper,Georgia
29170,Louisville,South Carolina
32246,Ponte Vedra Beach,Florida
50131,null,Iowa
7104,Beaver,New Jersey
36608,Butler,Alabama
27603,null,North Carolina
28546,Raleigh,North Carolina
28791,Butler,North Carolina
34207,Durham,Florida
32246,Savannah,Florida
27513,Long Island City,North Carolina
37421,Blue Ridge,Tennessee
32246,Uxbridge,Florida
33614,Gibsonton,Florida
33534,Norfolk,Florida
27215,Kernersville,North Carolina
33604,Clearwater,Florida
30093,Lawrenceville,Georgia
38002,Memphis,Tennessee
34748,Leesburg,Florida
33612,New Port Richey,Florida
18915,Warminster,Pennsylvania
78602,Daphne,Texas
31707,Albany,Georgia
27537,Fayetteville,North Carolina
8210,Marmora,New Jersey
30248,Cedar Rapids,Georgia
27954,null,North Carolina
33709,Sun City Center,Florida
34761,Altamonte Springs,Florida
32804,Clermont,Florida
32225,null,Florida
33762,Lakeland,Florida
28677,null,North Carolina
34207,Ramallah,Florida
39051,Meridian,Mississippi
34471,Jacksonville,Florida
29609,Monroe,South Carolina
30055,Birmingham,Georgia
30066,Powder Springs,Georgia
32084,St. Augustine,Florida
39301,Decatur,Mississippi
32609,Beverly Hills,Florida
29501,Elgin,South Carolina
33614,Saint Petersburg,Florida
33147,null,Florida
29456,North Charleston,South Carolina
30115,Cleveland,Georgia
94087,Norfolk,California
61081,Burlington,Illinois
2767,null,Massachusetts
33619,Boca Raton,Florida
39301,Seminary,Mississippi
8753,Kingston,New Jersey
48640,Frankenmuth,Michigan
34207,Brecksville,Florida
33578,Brandon,Florida
32244,Lake City,Florida
30096,null,Georgia
60185,Willow Springs,Illinois
33709,Hialeah,Florida
18915,Bethlehem,Pennsylvania
4072,Saco,Maine
48603,Durand,Michigan
4072,Windham Center,Maine
29577,Blythewood,South Carolina
33912,Naples,Florida
34207,Miami,Florida
33912,Lehigh Acres,Florida
30513,Blue Ridge,Georgia
32578,Valparaiso,Florida
48603,Houston,Michigan
32534,Houston,Florida
30234,null,Georgia
34207,Winter Garden,Florida
80303,Longmont,Colorado
27604,Atlanta,North Carolina
35085,Alabaster,Alabama
38834,null,Mississippi
29649,Gastonia,South Carolina
33625,Land O' Lakes,Florida
30220,Griffin,Georgia
38237,Springdale,Tennessee
8232,Mechanicsburg,New Jersey
30060,Bethesda,Georgia
39531,New Albany,Mississippi
30577,Toccoa,Georgia
27893,Elon,North Carolina
29577,Moncks Corner,South Carolina
33314,Miami,Florida
61081,null,Illinois
38116,Memphis,Tennessee
32505,Gulf Breeze,Florida
34994,Oviedo,Florida
29526,Irmo,South Carolina
30046,Watkinsville,Georgia
28806,Auburn,North Carolina
30721,Johnson City,Georgia
34691,Apopka,Florida
27834,Washington,North Carolina
30360,Bay Shore,Georgia
32809,Parlin,Florida
64116,Hardin,Missouri
34613,Homosassa,Florida
67601,Hays,Kansas
29170,Columbia,South Carolina
48603,Columbus,Michigan
48603,Utica,Michigan
35661,Birmingham,Alabama
37167,Nashville,Tennessee
31405,null,Georgia
8753,Newark,New Jersey
24450,Midlothian,Virginia
40219,Elizabethtown,Kentucky
28806,Greenville,North Carolina
34982,Sebastian,Florida
63042,Florissant,Missouri
29016,Myrtle Beach,South Carolina
29730,Pineville,South Carolina
28806,null,North Carolina
28806,Lansing,North Carolina
27604,Clayton,North Carolina
27284,Burlington,North Carolina
31217,Moultrie,Georgia
53121,Delavan,Wisconsin
67211,null,Kansas
37167,Lawrenceburg,Tennessee
27604,Middletown,North Carolina
39301,Newton,Mississippi
27603,Smithfield,North Carolina
29461,Moncks Corner,South Carolina
85016,Phoenix,Arizona
36606,Moss Point,Alabama
29730,Marietta,South Carolina
77065,Houston,Texas
7104,Greenwich,New Jersey
33781,Brooklyn,Florida
30220,null,Georgia
29609,Washington,South Carolina
31405,Louisville,Georgia
28791,Weaverville,North Carolina
28717,Decatur,North Carolina
74145,Santa Barbara,Oklahoma
27262,Bland,North Carolina
30060,Tucker,Georgia
8037,null,New Jersey
29732,Toronto,South Carolina
29829,Memphis,South Carolina
29053,Chapin,South Carolina
37876,Seymour,Tennessee
35117,Griffin,Alabama
32505,Milton,Florida
37421,Knoxville,Tennessee
29053,null,South Carolina
32244,Umatilla,Florida
32304,Grand Rapids,Florida
30542,Atlanta,Georgia
30046,Old Fort,Georgia
32771,Hialeah,Florida
30009,Phenix City,Georgia
60106,Woodridge,Illinois
34231,Tampa,Florida
32703,Leesburg,Florida
32578,Fort Walton Beach,Florida
29435,null,South Carolina
20852,Frederick,Maryland
2032,Springfield,Massachusetts
31216,null,Georgia
7104,Washington,New Jersey
27288,Winston-Salem,North Carolina
36545,Elk Grove Village,Alabama
29526,Sumter,South Carolina
27604,Sanford,North Carolina
32301,Lakeland,Florida
30126,null,Georgia
28806,Sylva,North Carolina
18915,Lansdale,Pennsylvania
35080,Montgomery,Alabama
32506,Ozark,Florida
34207,Englewood,Florida
31503,Baxley,Georgia
31324,La Crosse,Georgia
35570,Nashville,Alabama
27028,Wilkesboro,North Carolina
34481,Ocala,Florida
29376,Spartanburg,South Carolina
61061,Antioch,Illinois
94087,San Jose,California
31324,Bismarck,Georgia
7104,New York,New Jersey
32303,Farmingville,Florida
29170,Charlotte,South Carolina
39047,West Monroe,Mississippi
7104,Staten Island,New Jersey
38834,Jackson,Mississippi
30909,Grovetown,Georgia
34950,Ellenwood,Florida
32804,New Port Richey,Florida
34787,Miami,Florida
33762,Clearwater,Florida
30248,Peachtree City,Georgia
30076,Stone Mountain,Georgia
30906,Byron,Georgia
28401,Morehead City,North Carolina
7104,Dumont,New Jersey
29609,Granite Falls,South Carolina
31516,Douglas,Georgia
33770,Boonville,Florida
60106,Lockport,Illinois
32905,Palm Bay,Florida
33634,null,Florida
35661,Florence,Alabama
28401,Burgaw,North Carolina
33613,New Hartford,Florida
34207,Cape Coral,Florida
32771,Melbourne,Florida
48634,Midland,Michigan
37876,Morristown,Tennessee
30016,Locust Grove,Georgia
29301,Simpsonville,South Carolina
28752,Forest City,North Carolina
31069,Warner Robins,Georgia
30046,Norman Park,Georgia
30907,Greenville,Georgia
34207,Jacksonville,Florida
27603,Cary,North Carolina
39503,Ocean Springs,Mississippi
31324,null,Georgia
22302,Parkville,Virginia
32771,Casselberry,Florida
77578,Suncook,Texas
33777,Saint Petersburg,Florida
36526,Semmes,Alabama
39051,Madison,Mississippi
37211,Plymouth,Tennessee
33460,West Palm Beach,Florida
28578,Goldsboro,North Carolina
32506,Pensacola,Florida
31794,Moultrie,Georgia
37311,Cleveland,Tennessee
7104,South Glens Falls,New Jersey
34135,Jacksonville,Florida
39201,Madison,Mississippi
36830,null,Alabama
30035,null,Georgia
29803,North Augusta,South Carolina
27603,Dunn,North Carolina
30907,High Point,Georgia
8037,Cape May,New Jersey
27603,Henderson,North Carolina
94087,Santa Barbara,California
28105,Wingate,North Carolina
33567,Seminole,Florida
30115,Westminster,Georgia
39307,null,Mississippi
34208,Bradenton,Florida
33714,Saint Petersburg,Florida
77034,Houston,Texas
31061,Milledgeville,Georgia
29645,Fountain Inn,South Carolina
7104,Hempstead,New Jersey
28540,Benson,North Carolina
33762,Weaverville,Florida
32218,Plano,Florida
48603,Grover,Michigan
29620,Calhoun Falls,South Carolina
28214,Charlotte,North Carolina
34207,Alva,Florida
32771,Longwood,Florida
28792,Brighton,North Carolina
64116,Heflin,Missouri
32303,Jacksonville,Florida
28412,Leland,North Carolina
33430,Deerfield Beach,Florida
32824,Port Orange,Florida
32210,Tallahassee,Florida
30655,Enterprise,Georgia
28110,Albemarle,North Carolina
39507,Slidell,Mississippi
29229,Columbia,South Carolina
63042,Elsah,Missouri
30680,Winder,Georgia
33770,New Port Richey,Florida
32301,Niceville,Florida
29609,Laconia,South Carolina
7104,Montgomery,New Jersey
39301,Marietta,Mississippi
32578,Freeport,Florida
32901,null,Florida
30135,Carrollton,Georgia
48603,New Windsor,Michigan
75703,Dallas,Texas
48603,Hemlock,Michigan
32506,Niceville,Florida
35117,Martinsburg,Alabama
39531,Fort Huachuaca,Mississippi
32771,Sanford,Florida
29730,Moscow,South Carolina
35805,Montgomery,Alabama
32503,Foley,Florida
33762,Tampa,Florida
34207,Overland Park,Florida
53051,Plymouth,Wisconsin
40047,Cincinnati,Kentucky
53045,Madison,Wisconsin
34207,Nokomis,Florida
27513,Burlington,North Carolina
30060,Dallas,Georgia
27707,null,North Carolina
37138,Gallatin,Tennessee
23707,Portsmouth,Virginia
29730,Waxhaw,South Carolina
32808,Melbourne,Florida
37921,Clinton,Tennessee
33781,Zephyrhills,Florida
42420,null,Kentucky
33770,Lakeland,Florida
29609,Hendersonville,South Carolina
29730,Fort Mill,South Carolina
77065,null,Texas
39531,Greenville,Mississippi
28262,Albertville,North Carolina
28540,Springfield Township,North Carolina
33781,null,Florida
32244,Fort Walton Beach,Florida
40165,Erlanger,Kentucky
28401,null,North Carolina
34601,Apopka,Florida
37167,Clarksville,Tennessee
30213,Opelika,Georgia
32822,Melbourne,Florida
63042,St Louis,Missouri
38127,Marion,Tennessee
28791,Fletcher,North Carolina
22302,Baltimore,Virginia
29526,Marietta,South Carolina
29609,Calabash,South Carolina
31539,Alma,Georgia
30014,Covington,Georgia
15216,null,Pennsylvania
32244,Glenview,Florida
32771,High Springs,Florida
34207,Polk City,Florida
24416,Ashburn,Virginia
31407,Hinesville,Georgia
30907,Grovetown,Georgia
32503,Milton,Florida
37055,Goodlettsville,Tennessee
29728,Jefferson,South Carolina
34601,Ejido Jacume,Florida
46123,Brownsburg,Indiana
29526,Little River,South Carolina
32218,Sioux Falls,Florida
34982,Clark,Florida
28906,Murphy,North Carolina
34950,Port Saint Lucie,Florida
36545,Jackson,Alabama
28791,null,North Carolina
60002,Antioch,Illinois
32534,Panama City,Florida
7104,Somerville,New Jersey
29053,New York,South Carolina
36526,Eatonton,Alabama
37421,Alamosa,Tennessee
30233,Griffin,Georgia
33781,Saint Petersburg,Florida
32177,Palatka,Florida
32824,Saint Cloud,Florida
32750,Tallahassee,Florida
29728,Rock Hill,South Carolina
78757,Austin,Texas
48603,Bad Axe,Michigan
89502,Reno,Nevada
30188,null,Georgia
37660,Bristol,Tennessee
34207,Newington,Florida
30161,null,Georgia
30047,Loganville,Georgia
27603,Cornelius,North Carolina
33770,Calabash,Florida
32804,Ashburn,Florida
27030,Apex,North Carolina
61081,Sterling,Illinois
29720,Lancaster,South Carolina
29611,null,South Carolina
39208,null,Mississippi
2090,Newtonville,Massachusetts
77034,Lake Jackson,Texas
48603,Kissimmee,Michigan
8210,Rahway,New Jersey
33901,Titusville,Florida
29607,Greenville,South Carolina
28791,Douglasville,North Carolina
28461,Zelienople,North Carolina
23901,Charlotte,Virginia
34207,Old Saybrook,Florida
27262,Gastonia,North Carolina
27262,Rural Hall,North Carolina
92675,Laguna Beach,California
28906,Ellijay,North Carolina
21921,Byron,Maryland
48603,Blanchard,Michigan
29526,Georgetown,South Carolina
27549,Fayetteville,North Carolina
7104,Jamaica,New Jersey
30121,Rome,Georgia
8753,Freehold Borough,New Jersey
35501,Columbus,Alabama
30542,null,Georgia
34243,Bradenton,Florida
60173,Streamwood,Illinois
22302,Woodsboro,Virginia
36619,null,Alabama
28791,Marietta,North Carolina
28117,Huntersville,North Carolina
29611,Greenville,South Carolina
28791,Richmond,North Carolina
30824,Montreal,Georgia
30060,Roswell,Georgia
34475,Plant City,Florida
33619,Hialeah,Florida
34237,Fort Myers,Florida
34448,Lake Butler,Florida
61341,Chicago,Illinois
33770,Minneapolis,Florida
61455,Benton,Illinois
32311,Fort Lauderdale,Florida
31407,Pooler,Georgia
36606,Mobile,Alabama
30542,Alpharetta,Georgia
31788,Thomasville,Georgia
32246,Alma,Florida
30742,Henryville,Georgia
30075,Powder Springs,Georgia
34471,Lady Lake,Florida
31705,Selbyville,Georgia
34475,Tampa,Florida
33032,Hialeah,Florida
32506,Navarre,Florida
39042,Jackson,Mississippi
32809,DeLand,Florida
42420,Evansville,Kentucky
8210,Millville,New Jersey
39307,Laurel,Mississippi
67216,null,Kansas
32311,Madison,Florida
34471,Ocala,Florida
34207,Sarasota,Florida
33759,Sumter,Florida
33567,Brandon,Florida
8753,Plainfield,New Jersey
4072,Cape Elizabeth,Maine
33311,null,Florida
29728,Lancaster,South Carolina
30076,Fairburn,Georgia
32626,Klin,Florida
31501,Athens,Georgia
48603,Circle Pines,Michigan
32246,Atlantic Beach,Florida
67207,Red Deer,Kansas
31093,Northbrook,Georgia
43912,Moundsville,Ohio
34471,Spartanburg,Florida
34787,Lakeland,Florida
7104,Cleveland,New Jersey
32246,Jacksonville,Florida
36545,Saraland,Alabama
33483,Ronkonkoma,Florida
29170,Fayetteville,South Carolina
61341,New York,Illinois
30906,Louisville,Georgia
60002,Chicago,Illinois
29204,Kingsport,South Carolina
31313,Savannah,Georgia
28358,Elizabethtown,North Carolina
34207,Ocoee,Florida
27513,Hilliard,North Carolina
28303,Charlotte,North Carolina
32907,Rockledge,Florida
28806,Canton,North Carolina
27263,Raleigh,North Carolina
8210,Chester,New Jersey
33064,Auburn,Florida
37311,Pelkie,Tennessee
29611,St Louis,South Carolina
34420,Hialeah,Florida
30360,null,Georgia
32822,New Holland,Florida
35233,Detroit,Alabama
29841,Charlotte,South Carolina
39056,Jackson,Mississippi
48603,Owosso,Michigan
32503,Pensacola,Florida
77083,Brenham,Texas
33614,Clermont,Florida
32442,Tallahassee,Florida
32534,Griswold,Florida
33023,Orlando,Florida
33513,Wildwood,Florida
32822,Orlando,Florida
27604,Warsaw,North Carolina
29729,Fort Mill,South Carolina
30040,Suwanee,Georgia
37912,null,Tennessee
29170,Marietta,South Carolina
30046,Cary,Georgia
33770,Stuart,Florida
33610,Oshkosh,Florida
32505,Roswell,Florida
22302,Silver Spring,Virginia
34450,Inverness,Florida
29609,Charlotte,South Carolina
34669,Moscow,Florida
31061,Douglas,Georgia
30047,Clemson,Georgia
64116,Stockton,Missouri
7104,Oklahoma City,New Jersey
34207,Sun City Center,Florida
62801,St Louis,Illinois
53045,St Louis,Wisconsin
31204,Charlotte,Georgia
31833,Lanett,Georgia
30248,Hogansville,Georgia
39503,Bay Saint Louis,Mississippi
39047,Ridgeland,Mississippi
29456,Miami,South Carolina
28043,null,North Carolina
33770,Inverness,Florida
33708,Sun City Center,Florida
30907,Thomson,Georgia
34207,Herndon,Florida
27944,Elizabeth City,North Carolina
29418,Johns Island,South Carolina
32304,Grand Ridge,Florida
47130,null,Indiana
61455,null,Illinois
29645,Fort Bragg,South Carolina
33069,Fort Lauderdale,Florida
29645,Gray Court,South Carolina
34638,Ocoee,Florida
28601,Tuxedo,North Carolina
7104,New Haven,New Jersey
32534,DeFuniak Springs,Florida
96819,Honolulu,Hawaii
33634,Orlando,Florida
53051,Redmond,Wisconsin
28734,Newport News,North Carolina
1852,Nashua,Massachusetts
27604,Durham,North Carolina
30220,Stone Mountain,Georgia
33444,Indialantic,Florida
30135,Thomaston,Georgia
37311,null,Tennessee
30540,Jefferson,Georgia
77338,Baytown,Texas
87031,Jemez Springs,New Mexico
34982,Vero Beach,Florida
29687,Inman,South Carolina
32208,null,Florida
29418,Cottageville,South Carolina
40701,London,Kentucky
33513,Kissimmee,Florida
33912,Sarasota,Florida
48603,Walled Lake,Michigan
30742,Hixson,Georgia
33781,Lawrenceburg,Florida
48603,Westland,Michigan
62801,Hazelwood,Illinois
48603,Atlanta,Michigan
2601,Biddeford,Massachusetts
33604,Boca Raton,Florida
34207,Spring Hill,Florida
32609,Spring Hill,Florida
98229,Seattle,Washington
28303,Graham,North Carolina
29607,Greer,South Carolina
48603,Sturgis,Michigan
22302,Great Falls,Virginia
34207,Safety Harbor,Florida
27030,Hickory,North Carolina
77065,Spring,Texas
27215,High Point,North Carolina
27105,Greensboro,North Carolina
48604,Midland,Michigan
36526,Ocala,Alabama
32205,Orange Park,Florida
48603,DeLand,Michigan
37211,Rossville,Tennessee
30075,null,Georgia
30075,Douglasville,Georgia
29645,Greenville,South Carolina
48603,Lansing,Michigan
37920,Loudon,Tennessee
30016,Covington,Georgia
32216,Ashburn,Florida
30223,Stone Mountain,Georgia
27284,Tempe,North Carolina
32244,Gainesville,Florida
28602,Hickory,North Carolina
35816,Huntsville,Alabama
34207,Sebring,Florida
31788,Moultrie,Georgia
27288,Eden,North Carolina
28717,Reading,North Carolina
8037,Gloucester City,New Jersey
36567,null,Alabama
27604,Chapel Hill,North Carolina
98229,Lakebay,Washington
15216,Queens Village,Pennsylvania
32216,Seminole,Florida
37421,Pittsburgh,Tennessee
33612,Orlando,Florida
29651,Harlan,South Carolina
30060,Raleigh,Georgia
30055,McDonough,Georgia
86326,Glendale,Arizona
32444,Port Saint Joe,Florida
75701,Tyler,Texas
30046,Lawrenceville,Georgia
32503,Gulf Breeze,Florida
33603,Athens,Florida
30047,Seneca,Georgia
42134,Bowling Green,Kentucky
33823,Ocala,Florida
35570,Chennai,Alabama
31069,Fort Valley,Georgia
30039,Snellville,Georgia
27513,Knightdale,North Carolina
33844,Davenport,Florida
33612,Richmond,Florida
7104,Pleasantville,New Jersey
34207,Ocala,Florida
27610,Clayton,North Carolina
38122,Memphis,Tennessee
30830,null,Georgia
33147,Ap'o,Florida
37660,Johnson City,Tennessee
27604,Rocky Mount,North Carolina
36830,Birmingham,Alabama
28540,Havelock,North Carolina
31503,Alpharetta,Georgia
39056,null,Mississippi
31503,Nahunta,Georgia
30075,Marietta,Georgia
33604,Saint Petersburg,Florida
29418,Myrtle Beach,South Carolina
30906,Evans,Georgia
34669,null,Florida
62801,Fairview Heights,Illinois
31516,null,Georgia
30188,Kennesaw,Georgia
50131,Ankeny,Iowa
36526,Birmingham,Alabama
33709,Northbrook,Florida
34207,Roslindale,Florida
65738,Murphysboro,Missouri
37122,Rushville,Tennessee
29732,Cary,South Carolina
93101,Los Angeles,California
33603,Sarasota,Florida
30188,Dalton,Georgia
27406,Dunn,North Carolina
31093,Thomasville,Georgia
33770,Birmingham,Florida
32303,Sterling Heights,Florida
29720,Charlotte,South Carolina
7104,Brentwood,New Jersey
48603,Muskegon,Michigan
29803,Aiken,South Carolina
92675,Perris,California
32505,Jacksonville,Florida
30342,Tampa,Georgia
7104,Commack,New Jersey
22302,Falls Church,Virginia
33770,Toronto,Florida
32506,San Bruno,Florida
29730,Van Wyck,South Carolina
37408,null,Tennessee
34207,Waverley,Florida
33023,Morganton,Florida
34601,Cape Coral,Florida
31535,Fitzgerald,Georgia
36608,null,Alabama
7104,Marlboro,New Jersey
32808,Mooresville,Florida
29150,Durham,South Carolina
75142,Austin,Texas
8037,Maple Shade,New Jersey
31539,null,Georgia
2767,Brewster,Massachusetts
33880,Bushnell,Florida
29607,Piedmont,South Carolina
28479,null,North Carolina
33619,Altamonte Springs,Florida
32233,Jacksonville,Florida
13208,Macedonia,New York
27607,Raleigh,North Carolina
28806,Kingsport,North Carolina
35242,Clanton,Alabama
33023,Hollywood,Florida
48603,Westerville,Michigan
8753,Mahwah,New Jersey
32233,Atlantic Beach,Florida
37660,Wise,Tennessee
27406,Greenville,North Carolina
34207,Amelia,Florida
33612,Burlington,Florida
29651,Taylors,South Carolina
34420,Lady Lake,Florida
32817,Orlando,Florida
29461,Winnsboro,South Carolina
8037,Absecon,New Jersey
36606,Lakeland,Alabama
42420,Indianapolis,Kentucky
30066,null,Georgia
34475,Lady Lake,Florida
37660,Elizabethton,Tennessee
27834,Greenville,North Carolina
27513,Menlo Park,North Carolina
34207,Chicago,Florida
27513,Fayetteville,North Carolina
34748,Altamonte Springs,Florida
27592,Willow Springs,North Carolina
27405,Toledo,North Carolina
28602,Greenville,North Carolina
33567,Tampa,Florida
30114,null,Georgia
30909,Chapin,Georgia
18915,Norristown,Pennsylvania
93101,null,California
48603,Clio,Michigan
29045,Irmo,South Carolina
30501,Philadelphia,Georgia
22302,McLean,Virginia
29609,Seneca,South Carolina
48603,Charlevoix,Michigan
29609,Duluth,South Carolina
27263,Berwyn,North Carolina
34207,North Port,Florida
34207,De Graff,Florida
28303,Lillington,North Carolina
32801,Apopka,Florida
30115,Braselton,Georgia
96814,'Ewa Beach,Hawaii
2132,Portland,Massachusetts
18915,Millsboro,Pennsylvania
36608,Daphne,Alabama
29720,Van Wyck,South Carolina
29418,Charleston,South Carolina
31206,null,Georgia
37040,null,Tennessee
31545,null,Georgia
28752,Raleigh,North Carolina
53045,Racine,Wisconsin
31217,Hawkinsville,Georgia
32506,Milton,Florida
33781,Antwerp,Florida
7104,Shrewsbury,New Jersey
7104,Danbury,New Jersey
45246,Chicago,Ohio
33714,Philadelphia,Florida
32534,Mobile,Florida
32505,Wesley Chapel,Florida
29730,Concord,South Carolina
36203,Donalsonville,Alabama
33440,Daytona Beach,Florida
28412,Hope Mills,North Carolina
31407,Savannah,Georgia
30223,null,Georgia
48603,Unionville,Michigan
32225,Pompano Beach,Florida
31217,null,Georgia
29418,Bluffton,South Carolina
32084,Jacksonville,Florida
37040,Clarksville,Tennessee
37876,Bristol,Tennessee
7104,Jackson Heights,New Jersey
36606,Hattiesburg,Alabama
33624,null,Florida
31788,Dubuque,Georgia
38008,Milan,Tennessee
32060,Orlando,Florida
27262,Kernersville,North Carolina
33781,Inverness,Florida
36526,Beverly Hills,Alabama
30824,Hephzibah,Georgia
30115,Aiken,Georgia
27616,Henderson,North Carolina
34207,Richmond,Florida
77598,Pearland,Texas
37421,Millbrook,Tennessee
33770,Shalimar,Florida
38024,Nashville,Tennessee
34601,The Villages,Florida
21061,Arnold,Maryland
32060,null,Florida
31206,Perry,Georgia
38127,Mabelvale,Tennessee
30024,Pell City,Georgia
8037,Lancaster,New Jersey
30097,Tempe,Georgia
53546,null,Wisconsin
31407,Miami,Georgia
33023,Miami,Florida
36526,Silverhill,Alabama
4072,Brooklyn,Maine
34207,San Miniato,Florida
64116,Platte City,Missouri
32822,Windermere,Florida
33567,Elkins,Florida
34207,Riverview,Florida
27526,Spring Hope,North Carolina
27262,Lincoln,North Carolina
32805,Sanford,Florida
31533,Fitzgerald,Georgia
77578,Tyler,Texas
20852,Potomac,Maryland
30360,Greer,Georgia
31093,Warner Robins,Georgia
29418,Mt. Pleasant,South Carolina
33567,Largo,Florida
29526,Goldsboro,South Carolina
39201,Jackson,Mississippi
39056,Ridgeland,Mississippi
42134,null,Kentucky
29649,null,South Carolina
8753,Washington,New Jersey
33714,null,Florida
48603,Birch Run,Michigan
31032,Macon,Georgia
37912,Knoxville,Tennessee
33781,Miami Beach,Florida
34601,Zephyrhills,Florida
30601,Athens,Georgia
29577,null,South Carolina
29170,Ellenwood,South Carolina
36870,Moscow,Alabama
31545,Marietta,Georgia
28791,Spartanburg,North Carolina
29609,Gaffney,South Carolina
32205,Fort Lauderdale,Florida
27888,Rocky Mount,North Carolina
39702,Columbus,Mississippi
32060,Lake Butler,Florida
27215,New York,North Carolina
27215,Mebane,North Carolina
29611,Williamston,South Carolina
33614,Louisville,Florida
29340,null,South Carolina
36330,Enterprise,Alabama
30168,Douglasville,Georgia
34638,Lorton,Florida
29611,Charlotte,South Carolina
31419,Pooler,Georgia
32771,Columbia,Florida
28752,null,North Carolina
28717,Baltimore,North Carolina
80214,Chicago,Colorado
32043,null,Florida
34207,Independence,Florida
30052,Alpharetta,Georgia
39073,null,Mississippi
27215,Walnut Cove,North Carolina
30504,null,Georgia
22302,Jersey City,Virginia
31204,Dahlonega,Georgia
18915,Florence,Pennsylvania
37055,Dickson,Tennessee
29526,Charlotte,South Carolina
31601,null,Georgia
38115,Cordova,Tennessee
7104,Portland,New Jersey
29526,Longs,South Carolina
30263,Newnan,Georgia
27856,Louisburg,North Carolina
34613,Tampa,Florida
29607,Rochester,South Carolina
64116,Liberty,Missouri
32808,Winter Haven,Florida
32211,Orange Park,Florida
30360,Douglasville,Georgia
34207,Detroit,Florida
33770,Eugene,Florida
33770,Miami,Florida
27511,Cary,North Carolina
27604,Pittsboro,North Carolina
32771,Eustis,Florida
92675,Aliso Viejo,California
2132,Windsor,Massachusetts
33069,San Francisco,Florida
31701,Valdosta,Georgia
32308,Quincy,Florida
36606,Charlotte,Alabama
33762,Sanford,Florida
33708,Tampa,Florida
29609,Spartanburg,South Carolina
29536,null,South Carolina
31217,Carrollton,Georgia
42134,White House,Kentucky
24572,Mansfield,Virginia
8753,Scotch Plains,New Jersey
34205,Myakka City,Florida
30035,Atlanta,Georgia
20852,Gaithersburg,Maryland
33709,Tampa,Florida
28601,Boone,North Carolina
34207,Wauchula,Florida
29645,Asheville,South Carolina
34207,Kissimmee,Florida
30224,Cumming,Georgia
33781,Johnson City,Florida
50131,Ottumwa,Iowa
28351,Landrum,North Carolina
30075,Woburn,Georgia
30512,Asheville,Georgia
22312,Washington,Virginia
77578,Exeter,Texas
67301,Independence,Kansas
33069,Pompano Beach,Florida
30075,Jonesboro,Georgia
36608,Marietta,Alabama
29108,Fort Mill,South Carolina
33578,Tampa,Florida
33880,Bartow,Florida
30115,Braintree,Georgia
30066,Atlanta,Georgia
32246,San Antonio,Florida
36606,Pensacola,Alabama
30135,Loganville,Georgia
23455,Moravian Falls,Virginia
89030,Los Angeles,Nevada
27260,High Point,North Carolina
31032,Atlanta,Georgia
36526,Gulf Shores,Alabama
33781,Lady Lake,Florida
28461,Jacksonville,North Carolina
33610,null,Florida
45246,East Northport,Ohio
30281,Macon,Georgia
33612,Lakeland,Florida
37115,Mount Juliet,Tennessee
34744,Kissimmee,Florida
30014,Monticello,Georgia
30606,Hodgenville,Georgia
35661,Huntsville,Alabama
37738,Seymour,Tennessee
36801,Opelika,Alabama
28791,Mission,North Carolina
32246,Orange Park,Florida
28602,Sanford,North Carolina
39051,Ridgeland,Mississippi
32534,Crestview,Florida
27603,Cartersville,North Carolina
29536,Myrtle Beach,South Carolina
34471,College Station,Florida
24450,Las Vegas,Virginia
28214,Mooresville,North Carolina
34207,Palm Harbor,Florida
22302,New York,Virginia
33614,Birmingham,Florida
30093,null,Georgia
30055,null,Georgia
29170,Chapin,South Carolina
28906,Durham,North Carolina
30512,Jefferson,Georgia
29645,Moscow,South Carolina
27596,Wake Forest,North Carolina
32696,Gainesville,Florida
30909,Hephzibah,Georgia
30040,Stone Mountain,Georgia
32504,Milton,Florida
29730,Clifton Heights,South Carolina
28358,Ellenwood,North Carolina
92675,Orange,California
36526,Saint Charles,Alabama
29609,Pineville,South Carolina
28601,Aldie,North Carolina
31503,Ashburn,Georgia
36608,Memphis,Alabama
36526,New Orleans,Alabama
33770,Dallas,Florida
40165,null,Kentucky
32750,null,Florida
24416,Buckingham,Virginia
27610,Winston-Salem,North Carolina
33762,Port Richey,Florida
31501,Jacksonville,Georgia
34748,Tampa,Florida
30097,Atlanta,Georgia
7104,Irvington,New Jersey
34207,Archer,Florida
31216,Lizella,Georgia
27616,Fayetteville,North Carolina
29609,Central,South Carolina
29645,Piedmont,South Carolina
30040,Lithia Springs,Georgia
32064,Opa-locka,Florida
30736,Shelbyville,Georgia
36526,Saraland,Alabama
30747,Lawrenceville,Georgia
37211,Cleveland,Tennessee
30060,Snellville,Georgia
29316,Sumter,South Carolina
7104,Media,New Jersey
34207,Bluffton,Florida
78602,Fairhope,Texas
53045,Maquoketa,Wisconsin
18915,Doylestown,Pennsylvania
21921,Elkton,Maryland
36116,Montgomery,Alabama
32626,Ocala,Florida
32507,Marietta,Florida
30721,Chattanooga,Georgia
65738,Rogers,Missouri
30016,McDonough,Georgia
36526,null,Alabama
37148,Nashville,Tennessee
22302,Strasburg,Virginia
32503,Enterprise,Florida
39047,null,Mississippi
32609,San Bruno,Florida
36526,Greenville,Alabama
40219,Indianapolis,Kentucky
40047,Brooks,Kentucky
53115,Chicago,Wisconsin
27262,Statesville,North Carolina
27263,Cornelius,North Carolina
44130,Wickliffe,Ohio
28043,Forest City,North Carolina
32084,Inverness,Florida
32905,Boca Raton,Florida
28806,Murphy,North Carolina
30075,Oak Hill,Georgia
29526,Greenville,South Carolina
32211,null,Florida
30909,Augusta,Georgia
31204,Greenville,Georgia
34601,Fairbanks,Florida
30014,Cedar Rapids,Georgia
32839,Orlando,Florida
30360,Conyers,Georgia
25526,Charleston,West Virginia
30093,Buford,Georgia
34471,Orlando,Florida
48603,Prudenville,Michigan
39047,Jackson,Mississippi
29609,Burlington,South Carolina
34207,Altamonte Springs,Florida
30319,null,Georgia
32804,Lake Mary,Florida
39648,Houston,Mississippi
30110,Acworth,Georgia
77338,null,Texas
34207,DeBary,Florida
77598,Natchez,Texas
29651,Rutherfordton,South Carolina
63042,null,Missouri
34207,Eagle Lake,Florida
36606,New York,Alabama
30281,Morrow,Georgia
7104,McKeesport,New Jersey
37167,Murfreesboro,Tennessee
39208,Waltham,Mississippi
30742,null,Georgia
60002,Maquoketa,Illinois
33563,Tampa,Florida
60106,Schaumburg,Illinois
30909,Aiken,Georgia
30115,St. Augustine,Georgia
33709,Fort Myers,Florida
31204,Butler,Georgia
30024,Decatur,Georgia
7104,Philadelphia,New Jersey
33523,Eureka,Florida
37207,null,Tennessee
34684,Brooklyn,Florida
22302,Brookhaven,Virginia
8753,Beachwood,New Jersey
23455,Richmond,Virginia
34207,Osprey,Florida
34233,Tampa,Florida
94087,San Francisco,California
36618,Grand Bay,Alabama
7104,New Canaan,New Jersey
29016,null,South Carolina
34787,Orlando,Florida
30906,Aiken,Georgia
45373,Sidney,Ohio
34471,Summerfield,Florida
18915,Douglasville,Pennsylvania
28401,Highlands,North Carolina
22302,Pittsburgh,Virginia
29649,Clinton,South Carolina
50131,Osage Beach,Iowa
32444,Panama City,Florida
48603,Chicago,Michigan
33815,null,Florida
29067,Lancaster,South Carolina
32505,Panama City,Florida
34207,Homosassa,Florida
27513,Corryton,North Carolina
31406,Richmond Hill,Georgia
33901,North Fort Myers,Florida
27101,Hickory,North Carolina
27101,Greensboro,North Carolina
39648,null,Mississippi
28461,Raleigh,North Carolina
28690,null,North Carolina
34683,Port Richey,Florida
30024,Houston,Georgia
32824,Greenville,Florida
39073,Jackson,Mississippi
30075,Tarboro,Georgia
33483,Fort Lauderdale,Florida
64116,Kansas City,Missouri
29730,null,South Carolina
27028,Kernersville,North Carolina
32505,Navarre,Florida
30188,Stone Mountain,Georgia
22312,Alexandria,Virginia
92675,Riverside,California
34207,Norwich,Florida
22302,Herndon,Virginia
30297,Forest Park,Georgia
64116,West Plains,Missouri
36870,Phenix City,Alabama
62801,Mascoutah,Illinois
35555,null,Alabama
28214,Salisbury,North Carolina
32839,Winter Park,Florida
29730,Denver,South Carolina
30060,Newark,Georgia
28711,Candler,North Carolina
32626,Apopka,Florida
37207,Louisville,Tennessee
30223,Griffin,Georgia
22302,Fairfax,Virginia
47130,Georgetown,Indiana
33912,Cape Coral,Florida
30236,Marietta,Georgia
36870,Americus,Alabama
34207,Menlo Park,Florida
7104,Roosevelt,New Jersey
22302,Oxon Hill,Virginia
4072,Hebron,Maine
32405,Atlanta,Florida
33781,Seminole,Florida
30234,Atlanta,Georgia
48603,Kawkawlin,Michigan
27604,Charlotte,North Carolina
48603,Orlando,Michigan
32068,Green Cove Springs,Florida
30907,Absecon,Georgia
30071,Warner Robins,Georgia
29645,Pelzer,South Carolina
22312,Richmond,Virginia
31088,Cochran,Georgia
34223,Fort Myers,Florida
32244,Phoenix,Florida
34223,Port Charlotte,Florida
33781,Pawtucket,Florida
30815,null,Georgia
29720,Tarboro,South Carolina
31408,Miami,Georgia
30075,Calhoun,Georgia
29435,Coats,South Carolina
30513,Soddy-Daisy,Georgia
33844,Saint Cloud,Florida
48603,Saline,Michigan
32216,Knoxville,Florida
27215,null,North Carolina
32442,Cleveland,Florida
53051,Pompano Beach,Wisconsin
93101,San Ramon,California
29649,Wilson,South Carolina
62801,Evansville,Illinois
33781,Fort Lauderdale,Florida
31602,Valdosta,Georgia
32211,Miami,Florida
86326,Phoenix,Arizona
29645,Belton,South Carolina
46168,Bloomington,Indiana
48603,Flint,Michigan
53045,Oak Creek,Wisconsin
48603,Arlington,Michigan
32534,New Orleans,Florida
30501,Athens,Georgia
27513,Albemarle,North Carolina
29732,Klin,South Carolina
33777,Largo,Florida
30907,Thomasville,Georgia
33584,Tampa,Florida
32114,The Villages,Florida
28027,Harrisburg,North Carolina
30909,Dallas,Georgia
22302,Cumberland,Virginia
48603,Alma,Michigan
67601,Phillipsburg,Kansas
32164,Hialeah,Florida
61270,Davenport,Illinois
37421,Little Rock,Tennessee
32618,Gainesville,Florida
94087,Oakland,California
28092,Lincolnton,North Carolina
61455,Overland Park,Illinois
31206,Alpharetta,Georgia
29645,Louisville,South Carolina
72956,Tulsa,Arkansas
33781,Nassau,Florida
28110,Kannapolis,North Carolina
30248,Bonaire,Georgia
33614,Plant City,Florida
37421,Arden,Tennessee
42134,Portland,Kentucky
27513,Raleigh,North Carolina
29566,Longs,South Carolina
22302,Centreville,Virginia
62801,Aviston,Illinois
48603,Boca Raton,Michigan
33064,Pompano Beach,Florida
29301,Lexington,South Carolina
29407,Grand Rapids,South Carolina
39507,Carthage,Mississippi
27030,Pinnacle,North Carolina
27105,null,North Carolina
27893,Zebulon,North Carolina
39047,Fairfax Station,Mississippi
32207,Prattville,Florida
48603,Saginaw,Michigan
7104,The Bronx,New Jersey
67207,Warsaw,Kansas
34684,Orlando,Florida
48603,Gaylord,Michigan
33770,Clearwater,Florida
38024,Little Rock,Tennessee
36545,Monroeville,Alabama
32216,Lakeland,Florida
33781,Oldsmar,Florida
2132,Kents Hill,Massachusetts
32548,Niceville,Florida
34207,Laurel,Florida
80303,null,Colorado
37138,Mount Juliet,Tennessee
30909,Evans,Georgia
27529,Selma,North Carolina
27707,Franklin,North Carolina
29550,null,South Carolina
31804,Columbus,Georgia
23235,Chester,Virginia
32246,Birmingham,Florida
37421,Duluth,Tennessee
32216,St. Augustine,Florida
30360,Mountain View,Georgia
32444,Key West,Florida
22302,Hyattsville,Virginia
36608,Rochester,Alabama
7104,Mankato,New Jersey
32244,Rapid City,Florida
27288,Durham,North Carolina
33563,Davenport,Florida
27262,Mocksville,North Carolina
29720,null,South Carolina
31406,Anderson,Georgia
29732,Winston-Salem,South Carolina
31206,Lilburn,Georgia
30110,Indiana,Georgia
27262,Raleigh,North Carolina
77338,Suncook,Texas
48640,Madison,Michigan
53051,Minneapolis,Wisconsin
30075,Lawrenceville,Georgia
29526,Marion,South Carolina
33908,Marco Island,Florida
64116,Blue Springs,Missouri
29170,Newberry,South Carolina
32578,Crestview,Florida
3051,Sabattus,New Hampshire
27030,Winston-Salem,North Carolina
34207,Irvington,Florida
29045,Kernersville,South Carolina
28792,Brevard,North Carolina
30830,Waynesboro,Georgia
32442,High Point,Florida
38801,null,Mississippi
67601,Benkelman,Kansas
77065,Salt Lake City,Texas
22046,Alexandria,Virginia
33619,Tampa,Florida
33614,null,Florida
38115,null,Tennessee
29483,null,South Carolina
29803,null,South Carolina
33619,null,Florida
33770,St Louis,Florida
27513,Pittsboro,North Carolina
7104,Washington Township,New Jersey
29526,West Columbia,South Carolina
7104,Mount Laurel,New Jersey
29526,Wendell,South Carolina
30824,Aiken,Georgia
39051,null,Mississippi
33770,Largo,Florida
77578,Manvel,Texas
27513,Thomasville,North Carolina
48603,Sanford,Michigan
39073,Pearl,Mississippi
27958,Elizabeth City,North Carolina
34207,Wimauma,Florida
35805,null,Alabama
7104,Sayreville,New Jersey
29170,Gastonia,South Carolina
34231,North Port,Florida
28806,Burnsville,North Carolina
34475,Summerfield,Florida
33604,Miami,Florida
34748,Wildwood,Florida
48603,Bay City,Michigan
33801,null,Florida
33634,Tampa,Florida
33908,Lehigh Acres,Florida
32773,Altamonte Springs,Florida
37876,Strawberry Plains,Tennessee
31206,Jackson,Georgia
34638,Munising,Florida
34669,Apopka,Florida
36078,Tallassee,Alabama
29407,Andrews,South Carolina
32117,null,Florida
36608,Denham Springs,Alabama
8210,null,New Jersey
36830,Dadeville,Alabama
28806,Marion,North Carolina
43068,Columbus,Ohio
31008,Elizabethtown,Georgia
36608,Semmes,Alabama
30060,null,Georgia
32571,Gulf Breeze,Florida
32304,null,Florida
29078,Winnsboro,South Carolina
30075,Glenview,Georgia
29301,null,South Carolina
30075,Jasper,Georgia
22302,Alexandria,Virginia
31545,Savannah,Georgia
30236,McDonough,Georgia
31535,Douglas,Georgia
33714,Orlando,Florida
33563,Seffner,Florida
31539,Athens,Georgia
28110,Monroe,North Carolina
30024,Kingsport,Georgia
48603,Menlo Park,Michigan
49022,Burlington,Michigan
32771,Austin,Florida
27604,Raleigh,North Carolina
34689,Stowe,Florida
29715,Plymouth,South Carolina
32824,Miami,Florida
30071,null,Georgia
30360,Jonesboro,Georgia
28043,Spruce Pine,North Carolina
48067,Chennai,Michigan
30097,Duluth,Georgia
27804,Wilson,North Carolina
32505,Pensacola,Florida
39301,Meridian,Mississippi
35058,Cullman,Alabama
28645,Wilkesboro,North Carolina
30909,null,Georgia
29651,Orangeburg,South Carolina
61341,Bloomington,Illinois
30223,McDonough,Georgia
34207,The Bronx,Florida
29729,Great Falls,South Carolina
33770,Schenectady,Florida
46545,null,Indiana
32804,Deltona,Florida
32618,Lakeland,Florida
78602,Houston,Texas
29456,Moncks Corner,South Carolina
30035,Decatur,Georgia
4072,Greer,Maine
29506,null,South Carolina
31407,Ellabell,Georgia
34601,Tampa,Florida
30060,Powder Springs,Georgia
30115,Asheville,Georgia
27893,Raleigh,North Carolina
39531,Batesville,Mississippi
34448,Inverness,Florida
33709,Lakeland,Florida
28401,Kelly,North Carolina
37138,Lebanon,Tennessee
27526,Knightdale,North Carolina
33069,Miami,Florida
30117,Louisville,Georgia
39301,Bailey,Mississippi
34475,Altamonte Springs,Florida
42420,Louisville,Kentucky
8210,Beach Haven,New Jersey
63376,Independence,Missouri
27834,Wilson,North Carolina
36526,Las Cruces,Alabama
63376,Chesterfield,Missouri
36526,Enterprise,Alabama
27616,Durham,North Carolina
34207,Alachua,Florida
27262,Gray Court,North Carolina
33770,Lake Worth,Florida
42134,Tullahoma,Kentucky
27604,Henderson,North Carolina
32211,Fort White,Florida
31545,Saint Simons Island,Georgia
36608,Crestview,Alabama
33770,null,Florida
27203,Princeton,North Carolina
32514,null,Florida
30035,Riverdale,Georgia
7104,Baldwin,New Jersey
30224,Griffin,Georgia
77578,Houston,Texas
33714,Miami,Florida
30046,Smyrna,Georgia
27263,Winston-Salem,North Carolina
33844,Ocoee,Florida
30907,Chesterfield,Georgia
29730,Shelby,South Carolina
32254,Lakeland,Florida
30474,North Augusta,Georgia
32696,Apopka,Florida
31324,Oakland,Georgia
32303,Prattville,Florida
37421,Hayesville,Tennessee
7104,Ridgewood,New Jersey
30233,null,Georgia
8210,Sea Isle City,New Jersey
36203,Oneonta,Alabama
60453,Chicago,Illinois
33782,Clearwater,Florida
30253,null,Georgia
33823,null,Florida
77034,Sinton,Texas
31501,Hortense,Georgia
32534,Shalimar,Florida
7104,Salford,New Jersey
63019,Mokane,Missouri
36580,Lincoln,Alabama
29609,Jefferson,South Carolina
28083,Buffalo,North Carolina
28212,Huntersville,North Carolina
39047,Humboldt,Mississippi
28461,null,North Carolina
33781,Homosassa,Florida
29803,Orangeburg,South Carolina
92675,Irvine,California
30606,Lithonia,Georgia
77065,Baton Rouge,Texas
30110,Villa Rica,Georgia
30220,Zebulon,Georgia
37876,null,Tennessee
29376,Greenville,South Carolina
38115,Memphis,Tennessee
32801,Orlando,Florida
40219,Louisville,Kentucky
48603,Albion,Michigan
33610,Seminole,Florida
28412,null,North Carolina
31503,Waycross,Georgia
7104,Chester,New Jersey
28540,null,North Carolina
32303,Fremont,Florida
27513,Fort Collins,North Carolina
37211,Redmond,Tennessee
47904,null,Indiana
28752,Gastonia,North Carolina
29730,Anderson,South Carolina
22302,Bethesda,Virginia
28303,Norwood,North Carolina
33607,Tampa,Florida
35117,Gardendale,Alabama
28557,Newport,North Carolina
77578,Salt Lake City,Texas
29611,Covington,South Carolina
30115,Jasper,Georgia
28806,Hays,North Carolina
35233,Birmingham,Alabama
33770,Sarasota,Florida
34450,Lady Lake,Florida
34207,null,Florida
33801,Cape Coral,Florida
44130,Bedford,Ohio
32311,null,Florida
29645,Ware Shoals,South Carolina
8753,Jackson Township,New Jersey
33880,Lakeland,Florida
30122,Douglasville,Georgia
32750,Kissimmee,Florida
92675,San Juan Capistrano,California
48603,Metamora,Michigan
77578,Spring,Texas
27604,Garner,North Carolina
30126,Marietta,Georgia
36117,Montgomery,Alabama
32534,Colorado Springs,Florida
33762,Spring Hill,Florida
30009,Trenton,Georgia
31407,Chesterfield,Georgia
29418,Summerville,South Carolina
48603,Hastings,Michigan
75142,Irving,Texas
30024,null,Georgia
36203,La Grange,Alabama
64116,Omaha,Missouri
34207,North Attleboro,Florida
34614,Eustis,Florida
48603,New Berlin,Michigan
34207,Birmingham,Florida
32822,Largo,Florida
32771,Homer,Florida
35016,Albertville,Alabama
30135,Sharpsburg,Georgia
32771,Naples,Florida
30092,Marietta,Georgia
33064,Louisville,Florida
36619,Marianna,Alabama
28791,Mills River,North Carolina
33781,Monroe,Florida
28806,Vancouver,North Carolina
30165,Greenville,Georgia
67207,Hays,Kansas
29078,Columbia,South Carolina
71282,null,Louisiana
33880,Davenport,Florida
29505,null,South Carolina
29620,Princeton,South Carolina
35954,Gadsden,Alabama
34243,Cape Coral,Florida
30096,Ringgold,Georgia
30024,Grayson,Georgia
77598,null,Texas
31501,Moultrie,Georgia
60173,Cicero,Illinois
30071,Ellenwood,Georgia
42420,Madisonville,Kentucky
29607,Mauldin,South Carolina
30115,Madison,Georgia
30092,Moorhead,Georgia
4072,Scarborough,Maine
48640,Davison,Michigan
30168,Cartersville,Georgia
31406,Ellenwood,Georgia
34601,Venice,Florida
48603,Davison,Michigan
28752,Connelly Springs,North Carolina
37311,Dalton,Tennessee
29536,Redmond,South Carolina
22849,Staunton,Virginia
31558,City of Saint Marys,Georgia
77598,Suncook,Texas
29609,Morristown,South Carolina
63019,null,Missouri
29730,Durham,South Carolina
29205,Columbia,South Carolina
29651,Maiden,South Carolina
67207,Fort Riley-Camp Whiteside,Kansas
30135,Mission,Georgia
28212,Mooresboro,North Carolina
40701,Evansville,Kentucky
29073,Columbia,South Carolina
48603,South Lyon,Michigan
32304,Southfield,Florida
33714,Fort Myers,Florida
48603,Lake Orion,Michigan
33409,West Palm Beach,Florida
65738,St Louis,Missouri
36526,Mobile,Alabama
36526,Foley,Alabama
29651,Denver,South Carolina
7104,East Hampton,New Jersey
32804,null,Florida
29045,Columbia,South Carolina
32534,Destin,Florida
32534,Bush,Florida
93101,Northampton,California
27603,Fayetteville,North Carolina
38127,Memphis,Tennessee
29526,Wilmington,South Carolina
29369,Spartanburg,South Carolina
30096,Covington,Georgia
31216,Ts'khinvali,Georgia
29526,Roseville,South Carolina
63376,Calumet City,Missouri
27262,Greenup,North Carolina
39503,Jackson,Mississippi
28645,null,North Carolina
30606,Hartwell,Georgia
30223,Hampton,Georgia
28540,Swansboro,North Carolina
36606,Semmes,Alabama
34471,Alachua,Florida
29649,Gray Court,South Carolina
31601,Lake Park,Georgia
30248,Powder Springs,Georgia
48634,Saginaw,Michigan
27707,Garner,North Carolina
28303,Roanoke,North Carolina
33777,Annapolis,Florida
33563,Cordova,Florida
29325,Union,South Carolina
77065,Cypress,Texas
34689,Tampa,Florida
32771,Spanish Fort,Florida
28562,New Bern,North Carolina
31216,Macon,Georgia
34638,Tampa,Florida
27610,Raleigh,North Carolina
32810,Winter Park,Florida
34601,Dunnellon,Florida
34748,Redwood City,Florida
29418,Charlotte,South Carolina
31216,Moultrie,Georgia
30115,Spring,Georgia
34677,Plant City,Florida
30281,Newnan,Georgia
24572,Madison Heights,Virginia
32428,Crestview,Florida
29483,Summerville,South Carolina
36526,Folsom,Alabama
29609,Canton,South Carolina
27105,Raleigh,North Carolina
49015,Durand,Michigan
33548,Conyers,Florida
77083,Bellaire,Texas
35085,Wetumpka,Alabama
77034,Dallas,Texas
33311,Hialeah,Florida
39201,Houston,Mississippi
48603,Goodrich,Michigan
33770,Clarkesville,Florida
29526,Murrells Inlet,South Carolina
29418,Washington,South Carolina
32771,null,Florida
38237,Paris,Tennessee
42240,Evansville,Kentucky
30188,Dawsonville,Georgia
29609,Boiling Springs,South Carolina
45246,Dayton,Ohio
22046,Sterling Heights,Virginia
36870,West Point,Alabama
48603,Coldwater,Michigan
53045,Oshkosh,Wisconsin
27513,Winston-Salem,North Carolina
33032,null,Florida
8210,Blackwood,New Jersey
36203,Cleveland,Alabama
34207,Jacksonville Beach,Florida
39823,Moline,Georgia
27513,Mooresville,North Carolina
31324,Fort Huachuaca,Georgia
28461,Beaufort,North Carolina
29720,Durham,South Carolina
37167,Lavergne,Tennessee
37421,Dayton,Tennessee
30126,Byron,Georgia
32117,Jacksonville,Florida
39201,Greenbrier,Mississippi
34491,null,Florida
48603,Canton,Michigan
38024,Marietta,Tennessee
39201,Philadelphia,Mississippi
27596,Elm City,North Carolina
36870,Cumming,Alabama
29728,null,South Carolina
30360,Raleigh,Georgia
7104,South River,New Jersey
29577,Schuyler,South Carolina
8753,Ventnor City,New Jersey
29577,Myrtle Beach,South Carolina
32534,Sylacauga,Florida
28806,Alsip,North Carolina
29729,Johns Island,South Carolina
46545,Granger,Indiana
22302,Charles City,Virginia
48640,Hemlock,Michigan
28806,New York,North Carolina
30512,Commerce,Georgia
31533,Moultrie,Georgia
30080,Carrollton,Georgia
34669,Clearwater,Florida
48603,Jackson,Michigan
28601,Lansing,North Carolina
8210,Turtle Creek,New Jersey
36606,Sumrall,Alabama
30747,null,Georgia
34207,Irvine,Florida
67601,La Crosse,Kansas
31032,Monticello,Georgia
30360,Palm Beach Gardens,Georgia
28806,Mauldin,North Carolina
27357,Boone,North Carolina
28601,null,North Carolina
28379,Charlotte,North Carolina
28115,Charlotte,North Carolina
36608,Marrero,Alabama
32246,Lake City,Florida
48640,Saginaw,Michigan
32503,null,Florida
39201,Lawrenceville,Mississippi
34601,Orlando,Florida
33147,Miami,Florida
7104,Baltimore,New Jersey
28387,Sanford,North Carolina
8210,Cape May Court House,New Jersey
33781,Kissimmee,Florida
33612,Miami,Florida
34429,Hudson,Florida
30512,null,Georgia
48603,Beltsville,Michigan
36203,Rome,Alabama
34669,Lakeland,Florida
28806,Clyde,North Carolina
34475,Belleview,Florida
22302,Dumfries,Virginia
34207,Bonita Springs,Florida
31516,Atlanta,Georgia
29732,Charlotte,South Carolina
36801,Stone Mountain,Alabama
34233,null,Florida
28115,North Augusta,North Carolina
33781,Sarasota,Florida
46514,Fort Wayne,Indiana
38834,Brownsville,Mississippi
28906,Lithonia,North Carolina
30060,Jersey City,Georgia
37211,Nashville,Tennessee
34471,Beverly Hills,Florida
30110,null,Georgia
35235,Birmingham,Alabama
29801,null,South Carolina
48603,Lake Leelanau,Michigan
33566,Brandon,Florida
33619,Detroit,Florida
32117,Daytona Beach,Florida
48634,Troy,Michigan
33614,Arlington,Florida
48603,West Branch,Michigan
29566,Myrtle Beach,South Carolina
30501,null,Georgia
46038,null,Indiana
61455,Pleasanton,Illinois
35653,Decatur,Alabama
27596,Nashville,North Carolina
30741,Rossville,Georgia
31216,Mammoth Cave,Georgia
27357,Belgrade,North Carolina
29067,Sumter,South Carolina
28806,Olney,North Carolina
34207,Oviedo,Florida
32254,Jacksonville,Florida
78233,null,Texas
30066,Dallas,Georgia
27592,Weymouth,North Carolina
36619,Moselle,Alabama
61455,Bloomington,Illinois
29732,Christiansburg,South Carolina
30360,Lincolnton,Georgia
32117,Ormond Beach,Florida
30075,Dacula,Georgia
30071,Atlanta,Georgia
33990,Cape Coral,Florida
48603,Milford,Michigan
28083,null,North Carolina
32405,White Springs,Florida
48603,Livonia,Michigan
33714,Sebring,Florida
32809,Sarasota,Florida
28645,Bristol,North Carolina
39301,Pulaski,Mississippi
37660,null,Tennessee
28540,Jacksonville,North Carolina
53051,West Bend,Wisconsin
38583,Cookeville,Tennessee
36330,Fort Rucker,Alabama
33709,Miami,Florida
29609,Asheville,South Carolina
4072,Augusta,Maine
29732,Albemarle,South Carolina
28792,null,North Carolina
60139,Wheaton,Illinois
35555,Northport,Alabama
44236,Elk Grove Village,Ohio
33825,Avon Park,Florida
18915,Morton,Pennsylvania
34613,Archer,Florida
32809,Cocoa Beach,Florida
67601,Kaunas,Kansas
32804,Byron,Florida
75142,Sulphur Springs,Texas
30909,Waynesboro,Georgia
63376,City of Saint Peters,Missouri
33825,Fort Myers,Florida
29067,Indian Trail,South Carolina
28412,Columbia,North Carolina
34614,Tallahassee,Florida
29526,Panama City,South Carolina
38330,Mayfield,Tennessee
50131,West Des Moines,Iowa
34207,Mountain View,Florida
32506,Daleville,Florida
43912,Saint Clairsville,Ohio
30046,Ellenwood,Georgia
27604,Hampstead,North Carolina
20176,Alexandria,Virginia
7104,Cold Spring,New Jersey
29512,Charlotte,South Carolina
64503,St. Joseph,Missouri
31794,Albany,Georgia
37876,Kodak,Tennessee
37748,null,Tennessee
35594,Tuscaloosa,Alabama
33612,Sarasota,Florida
32534,Pensacola,Florida
33770,Tampa,Florida
33548,Miami,Florida
33844,null,Florida
27603,Winston-Salem,North Carolina
34207,Lithia,Florida
30134,Palmetto,Georgia
30135,Mableton,Georgia
50131,Urbandale,Iowa
35570,Talladega,Alabama
27215,Wake Forest,North Carolina
27604,Apex,North Carolina
33032,Walnut Creek,Florida
44236,Macedonia,Ohio
36606,Theodore,Alabama
18915,Washington,Pennsylvania
34207,Ona,Florida
37660,Big Stone Gap,Tennessee
24416,Lexington,Virginia
32809,Palm Bay,Florida
36606,Poplarville,Alabama
32626,Englewood,Florida
30040,Atlanta,Georgia
48603,Miami,Michigan
39823,Thomasville,Georgia
7104,Mahwah,New Jersey
33781,New Port Richey,Florida
48603,Ithaca,Michigan
34207,Somerset,Florida
61455,Quincy,Illinois
28479,Southport,North Carolina
33781,Northbrook,Florida
34207,Grand Rapids,Florida
31601,Valdosta,Georgia
29732,Rock Hill,South Carolina
63042,Granite City,Missouri
87031,Hatch,New Mexico
27025,Belgrade,North Carolina
28110,Wadesboro,North Carolina
27025,High Point,North Carolina
36526,Stone Mountain,Alabama
30360,Washington,Georgia
7104,Leola,New Jersey
27262,Thomasville,North Carolina
28806,Oak Ridge,North Carolina
27263,Olivia,North Carolina
33770,North Port,Florida
33060,Orlando,Florida
27592,Pfafftown,North Carolina
37211,Hendersonville,Tennessee
32808,null,Florida
18915,Montgomery,Pennsylvania
33781,Riverview,Florida
28602,Linden,North Carolina
31419,Savannah,Georgia
77338,Palestine,Texas
40701,Eubank,Kentucky
39503,D'Iberville,Mississippi
34207,Mentor,Florida
34475,Jacksonville,Florida
30016,Cumming,Georgia
28690,Banner Elk,North Carolina
27513,Clayton,North Carolina
27513,Goldsboro,North Carolina
27954,Byron,North Carolina
64503,Fort Riley-Camp Whiteside,Missouri
89502,Sparks,Nevada
37771,null,Tennessee
30084,Atlanta,Georgia
77083,Houston,Texas
36526,Daphne,Alabama
31408,Savannah,Georgia
29526,Myrtle Beach,South Carolina
30135,Lexington,Georgia
29150,West Columbia,South Carolina
29170,Ridgeway,South Carolina
32246,Hialeah,Florida
32824,Mt. Dora,Florida
8210,Richmond,New Jersey
35501,Trussville,Alabama
33781,Pinellas Park,Florida
34207,Cincinnati,Florida
27604,Goldsboro,North Carolina
33542,Zephyrhills,Florida
30075,Newnan,Georgia
30040,Commerce,Georgia
30046,Omaha,Georgia
31602,Altamonte Springs,Georgia
32301,Tallahassee,Florida
39042,Brandon,Mississippi
28645,Holly Springs,North Carolina
32811,null,Florida
53051,null,Wisconsin
30080,Pompano Beach,Georgia
67601,null,Kansas
60106,Addison,Illinois
48603,Comstock Park,Michigan
33781,Lakeland,Florida
32809,null,Florida
39208,Brandon,Mississippi
30093,Norwood Young America,Georgia
34207,Palmetto,Florida
27592,Garner,North Carolina
27604,Fuquay-Varina,North Carolina
34207,Tallahassee,Florida
32804,Winter Park,Florida
27357,Grover,North Carolina
60106,Berlin,Illinois
8210,Sacramento,New Jersey
7104,Dayton,New Jersey
30067,Fayetteville,Georgia
34471,null,Florida
27529,New York,North Carolina
30512,Dahlonega,Georgia
34450,Homosassa,Florida
30110,Rome,Georgia
33770,Homosassa,Florida
30606,Crockett,Georgia
37408,London,Tennessee
33708,Palmetto,Florida
35661,null,Alabama
32927,Orlando,Florida
29150,null,South Carolina
30907,Augusta,Georgia
32084,Hialeah,Florida
33980,Oklahoma City,Florida
35117,Birmingham,Alabama
37087,Antioch,Tennessee
50131,Ames,Iowa
7104,Islip Terrace,New Jersey
7104,Jim Thorpe,New Jersey
29456,Goose Creek,South Carolina
30736,Rossville,Georgia
34207,Manchester,Florida
28379,Salisbury,North Carolina
32303,null,Florida
27127,Durham,North Carolina
30055,Athens,Georgia
30134,Powder Springs,Georgia
34207,Canton,Florida
29456,Charleston,South Carolina
30236,Belgrade,Georgia
37921,null,Tennessee
31220,Montgomery,Georgia
28412,Sanford,North Carolina
32505,Destin,Florida
30066,Marietta,Georgia
28752,Spruce Pine,North Carolina
32503,Fairhope,Florida
27284,Clayton,North Carolina
28097,Albemarle,North Carolina
30655,Friendsville,Georgia
28806,Hendersonville,North Carolina
27105,Salisbury,North Carolina
32064,Fort White,Florida
25526,Saint Albans,West Virginia
29609,Arden,South Carolina
28117,Waxhaw,North Carolina
29730,Sylva,South Carolina
30080,Myrtle Beach,Georgia
18915,Chalfont,Pennsylvania
31533,Norman Park,Georgia
30540,Blue Ridge,Georgia
36606,Foley,Alabama
34205,Hialeah,Florida
29418,North Charleston,South Carolina
34748,Orlando,Florida
33756,null,Florida
39507,null,Mississippi
32303,Niceville,Florida
8210,Baltimore,New Jersey
33603,Gainesville,Florida
27262,Grand Rapids,North Carolina
31705,Leesburg,Georgia
30281,Jonesboro,Georgia
27603,Knightdale,North Carolina
27105,Roanoke,North Carolina
20852,Arlington,Maryland
29405,Durban,South Carolina
30248,Riverdale,Georgia
36618,Albany,Alabama
32824,Apopka,Florida
34601,Hudson,Florida
30016,Stone Mountain,Georgia
32548,Panama City,Florida
38834,Tupelo,Mississippi
32534,null,Florida
32839,Apopka,Florida
29302,null,South Carolina
29456,null,South Carolina
32771,Kissimmee,Florida
39051,Philadelphia,Mississippi
27101,High Point,North Carolina
33709,Clearwater,Florida
39507,Moss Point,Mississippi
27284,High Point,North Carolina
33415,Pompano Beach,Florida
27592,Fayetteville,North Carolina
29526,Orangeburg,South Carolina
8210,Troy,New Jersey
27604,Eagle Springs,North Carolina
33610,Winter Garden,Florida
27604,Greensboro,North Carolina
30606,Athens,Georgia
30044,null,Georgia
31313,Fleming,Georgia
22302,Fort Collins,Virginia
30233,Roswell,Georgia
31069,Douglas,Georgia
7104,Woodbridge,New Jersey
34233,Vallentuna,Florida
30606,Jefferson,Georgia
34207,Satellite Beach,Florida
29407,Ellenwood,South Carolina
48634,Vassar,Michigan
32822,Dunnellon,Florida
31093,New Orleans,Georgia
28806,Weaverville,North Carolina
22302,Fairmont,Virginia
30120,Woodstock,Georgia
37421,Cleveland,Tennessee
30084,Lawrenceville,Georgia
39503,Gulfport,Mississippi
33612,Plant City,Florida
7104,Norristown,New Jersey
34429,Beverly Hills,Florida
30075,St Louis,Georgia
33912,Gainesville,Florida
8210,Dearborn,New Jersey
30009,Alpharetta,Georgia
37421,Huntingdon Valley,Tennessee
7104,Reading,New Jersey
31602,Thomasville,Georgia
29649,Spring Lake,South Carolina
30341,Brooklyn,Georgia
27405,Greensboro,North Carolina
29732,Van Wyck,South Carolina
33415,Roanoke,Florida
32216,Cape Coral,Florida
33023,null,Florida
27262,Ellenwood,North Carolina
28105,Waxhaw,North Carolina
2090,Orono,Massachusetts
27262,Charlotte,North Carolina
31788,Tifton,Georgia
32505,Omega,Florida
37421,null,Tennessee
35235,Chattanooga,Alabama
32304,Panama City,Florida
53045,null,Wisconsin
34207,Saint Petersburg,Florida
77338,Houston,Texas
33781,Largo,Florida
28461,Sumter,North Carolina
31788,Granville,Georgia
39042,Chantilly,Mississippi
7104,Los Angeles,New Jersey
29732,Moscow,South Carolina
34207,New Port Richey,Florida
27105,New York,North Carolina
27284,Winston-Salem,North Carolina
30135,Gadsden,Georgia
32117,Lakeland,Florida
28806,Granite Falls,North Carolina
32308,Panama City Beach,Florida
28110,Winston-Salem,North Carolina
30060,Cumming,Georgia
53045,Oconomowoc,Wisconsin
75041,Irving,Texas
37421,Collegedale,Tennessee
32505,Chennai,Florida
32771,Ocala,Florida
39201,Winnsboro,Mississippi
48603,Troy,Michigan
33709,Saint Petersburg,Florida
28461,Wilmington,North Carolina
35661,Decatur,Alabama
33612,null,Florida
29301,Inman,South Carolina
8753,Hightstown,New Jersey
28791,Sacramento,North Carolina
28470,null,North Carolina
28906,Franklin,North Carolina
1523,Biddeford,Massachusetts
33903,Naples,Florida
22312,Manassas,Virginia
47130,Jeffersonville,Indiana
31794,Nashville,Georgia
37421,Land O' Lakes,Tennessee
7104,Elizabeth,New Jersey
30040,Cumming,Georgia
30434,Swainsboro,Georgia
32837,Clermont,Florida
29170,Lexington,South Carolina
33777,Ponchatoula,Florida
34652,Tampa,Florida
31792,Thomasville,Georgia
37748,Oakdale,Tennessee
37660,Kingsport,Tennessee
29720,Lenoir,South Carolina
33612,Spring Hill,Florida
33770,Macomb,Florida
32060,Altamonte Springs,Florida
33781,Sun City Center,Florida
32505,Valdosta,Florida
32809,Medell√≠n,Florida
32303,Waynesboro,Florida
27592,Wilmington,North Carolina
39301,null,Mississippi
30248,Memphis,Georgia
34207,Clermont,Florida
42420,Chicago,Kentucky
39051,Hattiesburg,Mississippi
31061,null,Georgia
34207,Weirton,Florida
39828,null,Georgia
34207,Metairie,Florida
28303,Chester,North Carolina
34231,New Port Richey,Florida
32618,Asheboro,Florida
30016,Snellville,Georgia
37912,Lenoir City,Tennessee
30024,Alpharetta,Georgia
7104,Kennett Square,New Jersey
33770,Pinellas Park,Florida
30168,null,Georgia
33815,Lakeland,Florida
29170,Darlington,South Carolina
27592,Clinton,North Carolina
32503,Bloomington,Florida
48603,Royal Oak,Michigan
28806,Asheville,North Carolina
37408,Chattanooga,Tennessee
48603,Roscommon,Michigan
34207,Cambridge,Florida
50131,Fayette,Iowa
3051,South Paris,New Hampshire
29730,Raleigh,South Carolina
27127,Greensboro,North Carolina
37311,Hernando,Tennessee
25526,Tornado,West Virginia
32534,Pike Road,Florida
39301,Booneville,Mississippi
33023,Tampa,Florida
27944,null,North Carolina
32428,null,Florida
48603,Farwell,Michigan
75142,Dallas,Texas
30135,Lawrenceville,Georgia
33032,Key Largo,Florida
94087,Fremont,California
33709,Winter Park,Florida
7104,Deer Park,New Jersey
36863,Lanett,Alabama
50131,Audubon,Iowa
30360,Lawrenceville,Georgia
30360,Pacific Palisades,Georgia
31601,Quitman,Georgia
31061,Louisville,Georgia
37138,Clarksville,Tennessee
30337,Gatlinburg,Georgia
31032,Smyrna,Georgia
39531,Mandeville,Mississippi
33064,Lakeland,Florida
31535,Willacoochee,Georgia
53045,Waupun,Wisconsin
30161,Calhoun,Georgia
38834,Corinth,Mississippi
30134,Douglasville,Georgia
48603,Mount Pleasant,Michigan
33523,null,Florida
29645,Simpsonville,South Carolina
31601,Pensacola,Georgia
61455,Table Grove,Illinois
24572,Arrington,Virginia
48603,Caledonia,Michigan
29645,null,South Carolina
37421,Benton,Tennessee
32808,Orlando,Florida
73128,Oklahoma City,Oklahoma
34601,Inverness,Florida
34450,Wildwood,Florida
30135,Douglasville,Georgia
34207,Takoma Park,Florida
33905,Austin,Florida
48634,Walled Lake,Michigan
32626,Perry,Florida
31794,Stone Mountain,Georgia
34207,Brampton,Florida
8232,null,New Jersey
31093,Acworth,Georgia
28906,Cleveland,North Carolina
33903,Fort Myers,Florida
18915,null,Pennsylvania
27828,Fremont,North Carolina
27893,Goldsboro,North Carolina
33069,Lebanon,Florida
27604,Redmond,North Carolina
78602,null,Texas
32805,Orlando,Florida
34613,Spring Hill,Florida
33770,Land O' Lakes,Florida
32505,Atmore,Florida
34748,Gainesville,Florida
31701,null,Georgia
39503,Biloxi,Mississippi
29483,Goose Creek,South Carolina
32164,null,Florida
28601,Hickory,North Carolina
27596,Raleigh,North Carolina
48603,Naubinway,Michigan
34243,Wollerau,Florida
30088,Lawrenceville,Georgia
33908,Moorestown Township,Florida
39648,Lucedale,Mississippi
30016,Wayne,Georgia
87031,Moriarty,New Mexico
32901,Melbourne,Florida
28311,Fayetteville,North Carolina
27028,Lexington,North Carolina
30024,Chattanooga,Georgia
33709,Dunedin,Florida
32060,Tallahassee,Florida
72401,null,Arkansas
37601,Jonesborough,Tennessee
33054,Miami,Florida
77598,Webster,Texas
37209,Goodlettsville,Tennessee
35501,null,Alabama
29407,Goose Creek,South Carolina
34946,null,Florida
37087,null,Tennessee
29620,Donalds,South Carolina
89502,null,Nevada
47670,Henderson,Indiana
32771,Altamonte Springs,Florida
27592,Raleigh,North Carolina
30281,Madison,Georgia
33709,Palm Harbor,Florida
30060,Calhoun,Georgia
27263,Oak Ridge,North Carolina
94087,Cupertino,California
30168,Greensboro,Georgia
31503,Blackshear,Georgia
34471,London,Florida
36606,Spring,Alabama
27284,Summerfield,North Carolina
31407,Bowling Green,Georgia
33314,Delray Beach,Florida
48603,Caro,Michigan
32308,Albany,Florida
31061,Lawrenceville,Georgia
7104,Marietta,New Jersey
23235,null,Virginia
30060,Cleveland,Georgia
29566,Ocean Isle Beach,South Carolina
30434,Statesboro,Georgia
61455,Roseville,Illinois
34207,Port Charlotte,Florida
37138,Hermitage,Tennessee
33770,London,Florida
31216,Hawkinsville,Georgia
28205,Moscow,North Carolina
87035,Fort Defiance,New Mexico
28601,Hudson,North Carolina
61053,Burlington,Illinois
30052,null,Georgia
22302,Hopewell,Virginia
36870,Alexander City,Alabama
48604,Saginaw,Michigan
47441,Elk Grove,Indiana
84074,Santa Ana,Utah
27604,Kao-sung,North Carolina
34207,Windermere,Florida
34207,Windsor,Florida
30096,McDonough,Georgia
34669,Spring Hill,Florida
34667,Inverness,Florida
31088,Cadwell,Georgia
37421,Manassas,Tennessee
7104,Lufkin,New Jersey
31216,Warner Robins,Georgia
29526,Loris,South Carolina
28412,Shallotte,North Carolina
75142,Seagoville,Texas
61455,Normal,Illinois
36618,null,Alabama
34748,Lakeland,Florida
34480,Belleview,Florida
28752,Charlotte,North Carolina
42420,Henderson,Kentucky
34238,Sarasota,Florida
15216,Greensburg,Pennsylvania
38330,Jackson,Tennessee
34207,Manassas,Florida
30165,Rome,Georgia
27592,Durham,North Carolina
30060,Umatilla,Georgia
34207,J√§rvenp√§√§,Florida
29678,Seneca,South Carolina
30075,Wilson,Georgia
8753,Tarrytown,New Jersey
33597,Beverly Hills,Florida
39301,Little Rock,Mississippi
32303,Ponte Vedra Beach,Florida
36608,Houston,Alabama
8753,Chester Springs,New Jersey
32246,Altamonte Springs,Florida
29651,Lyman,South Carolina
77598,Dallas,Texas
32771,Lake Mary,Florida
34207,Naples,Florida
92675,Tempe,California
8753,Barnegat,New Jersey
29829,North Augusta,South Carolina
32822,Apopka,Florida
32626,Wildwood,Florida
30114,San Bruno,Georgia
33612,Valrico,Florida
30093,Riverdale,Georgia
31313,Hinesville,Georgia
28461,Myrtle Beach,North Carolina
32246,New Smyrna Beach,Florida
8232,Pleasantville,New Jersey
38024,South Fulton,Tennessee
32246,Orlando,Florida
33604,Spring Hill,Florida
33614,Chicago,Florida
61455,Beardstown,Illinois
48603,Twin Lake,Michigan
32822,Kissimmee,Florida
29732,Saint Petersburg,South Carolina
30115,Denver,Georgia
28110,Lindenhurst,North Carolina
29729,Mt. Pleasant,South Carolina
29526,Columbia,South Carolina
29150,Kannapolis,South Carolina
34432,Belgrade,Florida
7104,null,New Jersey
36116,Birmingham,Alabama
29526,Raleigh,South Carolina
33983,Punta Gorda,Florida
32244,null,Florida
32905,Melbourne,Florida
32809,Bridgeport,Florida
32084,Largo,Florida
35023,null,Alabama
30046,null,Georgia
36567,Hamel,Alabama
92083,Moscow,California
36203,Anniston,Alabama
32784,Saint Paul,Florida
8753,Egg Harbor,New Jersey
29729,null,South Carolina
8232,Villas,New Jersey
34231,Bradenton,Florida
33770,Ada,Florida
28806,Arden,North Carolina
28212,Charlotte,North Carolina
7104,Lincroft,New Jersey
28730,Fairview,North Carolina
48603,Lake City,Michigan
27856,Raeford,North Carolina
2601,Auburn,Massachusetts
67207,Hutchinson,Kansas
77034,Pasadena,Texas
20852,Silver Spring,Maryland
37311,Ooltewah,Tennessee
32091,Ocoee,Florida
30093,Tuscaloosa,Georgia
32503,Daphne,Florida
39531,null,Mississippi
33483,Sarasota,Florida
29150,Sumter,South Carolina
60453,Berwyn,Illinois
4072,Springfield,Maine
30040,Minooka,Georgia
36526,Pascagoula,Alabama
18915,King George,Pennsylvania
34207,Indiana,Florida
30110,Carrollton,Georgia
32626,Crestview,Florida
29609,Columbia,South Carolina
2339,Cumberland,Massachusetts
30907,San Jos√©,Georgia
28806,Pittsboro,North Carolina
32750,Punta Gorda,Florida
32503,Washington,Florida
30060,Athens,Georgia
30110,Brilliant,Georgia
27203,Thomasville,North Carolina
37030,Dixon Springs,Tennessee
48603,Saint Johns,Michigan
7104,Ridgefield Park,New Jersey
31794,Tifton,Georgia
29407,null,South Carolina
36526,Fairhope,Alabama
94087,Santa Cruz,California
34207,Atlanta,Florida
33440,Arcadia,Florida
27604,Adelaide,North Carolina
22312,null,Virginia
8753,Trenton,New Jersey
28601,Fayetteville,North Carolina
33563,Hialeah,Florida
39531,Ocean Springs,Mississippi
32839,null,Florida
37421,Columbia,Tennessee
28027,Gastonia,North Carolina
32505,null,Florida
32246,null,Florida
32809,Louisville,Florida
32839,Palatka,Florida
37207,Nashville,Tennessee
31533,Lexington,Georgia
32626,Gainesville,Florida
27284,New York,North Carolina
28358,Lumberton,North Carolina
46254,Indianapolis,Indiana
30096,Georgetown,Georgia
38237,Jackson,Tennessee
30234,Covington,Georgia
33709,Apopka,Florida
7104,Jonesboro,New Jersey
30135,Austell,Georgia
27025,Durham,North Carolina
65738,Joplin,Missouri
32566,Birmingham,Florida
35016,Chicago,Alabama
27215,Burlington,North Carolina
30120,Rockmart,Georgia
32304,Ellaville,Florida
98229,Omaha,Washington
32609,null,Florida
8753,Hopewell,New Jersey
48603,Alpena,Michigan
39531,Hopedale,Mississippi
33912,Minot,Florida
73128,Bowmanville,Oklahoma
33613,Greenville,Florida
30341,Fayetteville,Georgia
39503,Ridgeland,Mississippi
33523,Zephyrhills,Florida
30115,Charlotte,Georgia
39047,Brandon,Mississippi
39507,Folsom,Mississippi
30066,Stone Mountain,Georgia
32776,Windermere,Florida
40219,Shelbyville,Kentucky
34207,Venice,Florida
8210,Wildwood,New Jersey
29645,Union,South Carolina
39301,Jackson,Mississippi
28461,Conway,North Carolina
28601,Denver,North Carolina
7104,Wilmington,New Jersey
34690,Fort Walton Beach,Florida
28358,Eden,North Carolina
2767,Taunton,Massachusetts
36801,Auburn,Alabama
36618,Mobile,Alabama
32839,Saint Cloud,Florida
28358,Charlotte,North Carolina
32808,Longwood,Florida
34638,Valrico,Florida
34683,Plymouth,Florida
35020,null,Alabama
48603,Bowling Green,Michigan
27610,Durham,North Carolina
37421,Rossville,Tennessee
30248,Marietta,Georgia
34207,Apopka,Florida
34207,Chester,Florida
35212,null,Alabama
27357,Knightdale,North Carolina
30014,null,Georgia
33584,Seffner,Florida
27526,Vass,North Carolina
29730,Columbia,South Carolina
30540,Alpharetta,Georgia
34237,Acworth,Florida
27604,Woodbridge,North Carolina
39507,Lucedale,Mississippi
34207,Vankleek Hill,Florida
30906,null,Georgia
32507,Pensacola,Florida
34481,null,Florida
30071,Kennesaw,Georgia
7104,Crestwood,New Jersey
30824,Grovetown,Georgia
36830,Opelika,Alabama
29609,Benton,South Carolina
30248,Irving,Georgia
34668,Spring Hill,Florida
32428,Chipley,Florida
27403,Matthews,North Carolina
28083,Kannapolis,North Carolina
32218,Chesapeake,Florida
7104,Lake Worth,New Jersey
33905,Cape Coral,Florida
48603,Maryland Heights,Michigan
28303,Newland,North Carolina
32626,Beverly Hills,Florida
98229,Bellingham,Washington
33709,Pinellas Park,Florida
34207,Medina,Florida
30126,Douglasville,Georgia
27030,Houma,North Carolina
30747,Perry,Georgia
34207,Stone Mountain,Florida
37421,Irving,Tennessee
29407,Charleston,South Carolina
30909,Stone Mountain,Georgia
53546,Janesville,Wisconsin
32164,Palm Coast,Florida
48603,Apopka,Michigan
33023,Lakeland,Florida
30040,Marietta,Georgia
34207,Chelsea,Florida
28806,Moore,North Carolina
7104,Long Beach,New Jersey
34748,David,Florida
32626,Archer,Florida
48603,Tell City,Michigan
32060,Jacksonville Beach,Florida
27405,null,North Carolina
28202,Durham,North Carolina
48603,Big Rapids,Michigan
29316,Greer,South Carolina
28146,Salisbury,North Carolina
7104,Basking Ridge,New Jersey
35020,Tuscaloosa,Alabama
28806,Mills River,North Carolina
31406,Mt. Pleasant,Georgia
33801,Auburndale,Florida
31419,Independence,Georgia
30024,Knoxville,Georgia
32311,Miami,Florida
53051,Milwaukee,Wisconsin
32303,Gastonia,Florida
29609,null,South Carolina
32246,Baton Rouge,Florida
37030,Westmoreland,Tennessee
30097,Tampa,Georgia
30016,Chicago,Georgia
31088,Warner Robins,Georgia
8753,Wallingford,New Jersey
36606,Biloxi,Alabama
33770,Marianna,Florida
28717,Bethesda,North Carolina
46545,Mishawaka,Indiana
34982,Miami,Florida
78602,Tbilisi,Texas
32824,Santo Domingo,Florida
34207,New York,Florida
32503,Cedar Falls,Florida
37876,Tellico Plains,Tennessee
29526,Newark,South Carolina
36330,null,Alabama
34638,Port Charlotte,Florida
48603,Wilmington,Michigan
30606,null,Georgia
62801,Des Moines,Illinois
29053,Fort Huachuaca,South Carolina
22302,Upper Marlboro,Virginia
33614,Bluffton,Florida
27604,Northridge,North Carolina
32693,Branford,Florida
32218,Hinesville,Florida
34207,Gainesville,Florida
30122,Decatur,Georgia
34207,Lexington,Florida
29829,Aiken,South Carolina
27513,Elizabethtown,North Carolina
85016,Gilbert,Arizona
4072,Biddeford,Maine
22302,Greer,Virginia
31705,null,Georgia
23970,Richmond,Virginia
77598,League City,Texas
34689,Lake Worth,Florida
29803,Warner Robins,South Carolina
27101,HƒÅsal,North Carolina
32811,Apopka,Florida
30060,Newnan,Georgia
30434,North Augusta,Georgia
38801,Sumrall,Mississippi
27526,Garner,North Carolina
50131,Fulton,Iowa
32776,Maitland,Florida
31501,Vidalia,Georgia
31093,null,Georgia
31558,Kingsland,Georgia
61053,DeKalb,Illinois
39702,null,Mississippi
48640,null,Michigan
64116,null,Missouri
34207,Fort Lauderdale,Florida
30115,Lakeview,Georgia
27932,Fayetteville,North Carolina
28212,Pinnacle,North Carolina
73128,Little Rock,Oklahoma
31061,Ashburn,Georgia
22046,Pittsburgh,Virginia
31501,Fernandina Beach,Georgia
29624,Norwood,South Carolina
29732,Waxhaw,South Carolina
29053,Florence,South Carolina
61270,Freeport,Illinois
37421,Franklin,Tennessee
36606,Metairie,Alabama
28328,Clinton,North Carolina
61053,null,Illinois
48603,Novi,Michigan
30135,null,Georgia
33603,Clearwater,Florida
22302,Rockville,Virginia
33764,Lakeland,Florida
62801,Bloomington,Illinois
32962,Vero Beach,Florida
29607,Hendersonville,South Carolina
48603,Casselman,Michigan
20724,Gaithersburg,Maryland
32824,Palatka,Florida
33708,Lakeland,Florida
30075,Snellville,Georgia
36606,Dothan,Alabama
39702,Alabaster,Mississippi
96814,Honolulu,Hawaii
27101,Charlotte,North Carolina
70804,Houston,Louisiana
33440,Miami,Florida
32244,Hialeah,Florida
60543,null,Illinois
32505,Crestview,Florida
34237,Winter Garden,Florida
40701,Olmsted Falls,Kentucky
37421,Maryville,Tennessee
33610,Tampa,Florida
29016,Columbia,South Carolina
33709,null,Florida
34748,null,Florida
29728,Chesterfield,South Carolina
75142,Greenville,Texas
50131,Kansas City,Iowa
36830,Tampa,Alabama
34207,Austin,Florida
27513,Wake Forest,North Carolina
30747,Nashville,Georgia
33781,Odessa,Florida
32114,Lakeland,Florida
33709,Ormond Beach,Florida
7104,Brick Township,New Jersey
31088,Perry,Georgia
34677,Lakeland,Florida
38116,null,Tennessee
33880,Lake Wales,Florida
31204,Macon,Georgia
33624,Tampa,Florida
32308,Tallahassee,Florida
29045,Marietta,South Carolina
34207,Louisville,Florida
34207,Valrico,Florida
30016,Athens,Georgia
7104,Indianapolis,New Jersey
33908,Tallahassee,Florida
28557,Wilmington,North Carolina
2339,Biddeford,Massachusetts
27263,Greensboro,North Carolina
34652,Piedmont,Florida
28115,Clemmons,North Carolina
30188,Fayetteville,Georgia
32534,Niceville,Florida
36606,Saraland,Alabama
38115,Laurel,Tennessee
32301,Quincy,Florida
36526,Pensacola,Alabama
31217,Macon,Georgia
48603,Harrison,Michigan
30540,Ellijay,Georgia
33032,Miami,Florida
32696,Inverness,Florida
53051,Marinette,Wisconsin
37421,Atlanta,Tennessee
63042,O'Fallon,Missouri
29316,null,South Carolina
34475,Ocala,Florida
35501,Birmingham,Alabama
87035,Rio Rancho,New Mexico
2653,Cornelius,Massachusetts
61455,Redmond,Illinois
31324,Fort Stewart,Georgia
31709,null,Georgia
30084,Dacula,Georgia
31503,North Vernon,Georgia
48603,Weidman,Michigan
28306,Fayetteville,North Carolina
33908,Miami,Florida
30341,Jonesboro,Georgia
62801,Highland,Illinois
31533,Millen,Georgia
34207,Orlando,Florida
30134,Atlanta,Georgia
7104,Parsippany,New Jersey
34207,Peabody,Florida
29607,Kill Devil Hills,South Carolina
8753,Montclair,New Jersey
27357,Winston-Salem,North Carolina
8037,Berlin,New Jersey
18915,Easton,Pennsylvania
38834,Shannon,Mississippi
22302,Pflugerville,Virginia
60139,Elmhurst,Illinois
34207,Gibsonton,Florida
30075,Canton,Georgia
31061,Fitzgerald,Georgia
32311,Quitman,Florida
48603,Midland,Michigan
28358,Rocky Point,North Carolina
34471,Davenport,Florida
77373,Dallas,Texas
33311,Pompano Beach,Florida
64116,Mount Laurel,Missouri
33781,Tampa,Florida
30907,Charlotte,Georgia
60002,Benton,Illinois
30742,Soddy-Daisy,Georgia
37040,Bowling Green,Tennessee
32839,Indaiatuba,Florida
29729,Huntersville,South Carolina
31204,Commerce,Georgia
30824,Spartanburg,Georgia
30655,Atlanta,Georgia
7104,Holtsville,New Jersey
33781,Glossop,Florida
33901,Cape Coral,Florida
35570,Dickson,Alabama
32804,Melbourne,Florida
30540,Franklin,Georgia
36203,Boise,Alabama
34691,Palm Harbor,Florida
48603,Fenton,Michigan
33614,Largo,Florida
22302,Washington,Virginia
37748,Rockwood,Tennessee
30606,Lawrenceville,Georgia
32301,null,Florida
28092,Medford,North Carolina
28602,Palmyra,North Carolina
40010,La Grange,Kentucky
29072,null,South Carolina
64116,Saint Petersburg,Missouri
27834,null,North Carolina
31407,Folkston,Georgia
27537,Roanoke Rapids,North Carolina
28806,Johnson City,North Carolina
2767,Fullerton,Massachusetts
27262,McLeansville,North Carolina
37311,Murfreesboro,Tennessee
22046,Salinas,Virginia
28806,Medford,North Carolina
8210,Cropseyville,New Jersey
45246,Loveland,Ohio
39042,Gardendale,Mississippi
30097,Grayson,Georgia
33523,Winter Park,Florida
32935,Melbourne,Florida
34601,Spring Hill,Florida
32809,Orlando,Florida
7104,Tempe,New Jersey
30046,Weaverville,Georgia
30824,Decatur,Georgia
31503,null,Georgia
30075,Cumming,Georgia
30075,Charleston,Georgia
34669,Hialeah,Florida
29730,Matthews,South Carolina
30141,Macon,Georgia
30076,Cumming,Georgia
77578,null,Texas
34207,Philadelphia,Florida
61270,Sharon,Illinois
24210,null,Virginia
29067,null,South Carolina
33444,Charleston,Florida
32534,Guthrie,Florida
30040,Loganville,Georgia
18915,Woodbine,Pennsylvania
48603,Marietta,Michigan
75142,Duncanville,Texas
38237,Nashville,Tennessee
67601,Colby,Kansas
48603,Farmington,Michigan
30110,Atlanta,Georgia
32207,Miami,Florida
80303,Crestone,Colorado
34601,Batavia,Florida
32824,null,Florida
48603,Vassar,Michigan
34761,Winter Garden,Florida
7104,Dodgewood,New Jersey
33614,Orlando,Florida
32771,Umatilla,Florida
28570,Beaufort,North Carolina
37660,Franklin,Tennessee
29732,Columbia,South Carolina
30907,North Augusta,Georgia
30060,Covington,Georgia
36606,Redmond,Alabama
31513,Baxley,Georgia
31407,null,Georgia
34207,Bradenton,Florida
48603,Tomah,Michigan
29651,Greer,South Carolina
37421,Asheville,Tennessee
33612,Zephyrhills,Florida
33880,Apopka,Florida
98229,Chicago,Washington
28645,Clayton,North Carolina
32822,null,Florida
30907,Providence,Georgia
30122,Atlanta,Georgia
30271,Newnan,Georgia
33444,Miami,Florida
22302,Pasadena,Virginia
32246,Flowery Branch,Florida
39301,Opelousas,Mississippi
33770,Nashville,Florida
22302,Annandale,Virginia
30060,Saint Petersburg,Georgia
28717,Phoenix,North Carolina
27526,Spring Lake,North Carolina
39047,Jasper,Mississippi
39201,Atlanta,Mississippi
92675,South Gate,California
28303,Rome,North Carolina
29456,Knightdale,South Carolina
48603,Minneapolis,Michigan
28214,Hampton,North Carolina
30360,Wheeling,Georgia
29045,Pittsboro,South Carolina
48603,Flushing,Michigan
30120,Atlanta,Georgia
48603,Chesaning,Michigan
62801,Edwardsville,Illinois
38024,Dyersburg,Tennessee
27596,Durham,North Carolina
27513,null,North Carolina
30060,Atlanta,Georgia
7104,Plainfield,New Jersey
27101,Winston-Salem,North Carolina
29607,Spartanburg,South Carolina
32822,Tampa,Florida
33770,St. Thomas,Florida
67207,Brooklyn,Kansas
32804,Apopka,Florida
28150,Shelby,North Carolina
34207,Avon Park,Florida
29803,Augusta,South Carolina
30337,Winston-Salem,Georgia
34450,Ocala,Florida
93101,Goleta,California
34683,Tampa,Florida
30474,null,Georgia
36608,Jacksonville,Alabama
33990,Fort Myers,Florida
29577,Stone Mountain,South Carolina
48603,Lowell,Michigan
48603,Auburn,Michigan
34638,Saint Petersburg,Florida
37311,Harriman,Tennessee
39531,Northport,Mississippi
29053,Winnsboro,South Carolina
27617,Asheboro,North Carolina
29651,Knoxville,South Carolina
29526,Wilson,South Carolina
18915,Newfoundland,Pennsylvania
27332,Erwin,North Carolina
29170,West Columbia,South Carolina
32444,Jacksonville,Florida
27028,Concord,North Carolina
37920,Knoxville,Tennessee
36203,Pell City,Alabama
30224,Atlanta,Georgia
37040,Fort Campbell North,Tennessee
8037,Pottstown,New Jersey
35816,Madison,Alabama
7104,Middletown,New Jersey
32534,Albany,Florida
33770,Irving,Florida
35117,Pinson,Alabama
30060,Forsyth,Georgia
31204,Ellenwood,Georgia
34207,Bradenton Beach,Florida
31093,Macon,Georgia
32824,Jacksonville,Florida
39301,Butler,Mississippi
28717,Columbia,North Carolina
36203,Page,Alabama
30120,Cartersville,Georgia
42240,Englewood,Kentucky
36526,Metairie,Alabama
31705,Albany,Georgia
30830,Augusta,Georgia
65738,Springfield,Missouri
33548,Byron,Florida
27028,Salisbury,North Carolina
30360,Kennesaw,Georgia
29526,Pawleys Island,South Carolina
61455,Edwardsville,Illinois
28212,null,North Carolina
96814,Alamo,Hawaii
34207,Beirut,Florida
37660,Morristown,Tennessee
31093,Dahlonega,Georgia
48603,Lockhart,Michigan
29645,Youngsville,South Carolina
32505,Rochester,Florida
37209,Lawrenceville,Tennessee
29803,Swansea,South Carolina
29609,Bluff City,South Carolina
30360,Atlanta,Georgia
33770,Detroit,Florida
27513,Cary,North Carolina
37421,Toney,Tennessee
60173,Itasca,Illinois
27025,Siler City,North Carolina
45011,Denver,Ohio
48604,null,Michigan
24450,Earlysville,Virginia
33708,Seminole,Florida
28739,Hendersonville,North Carolina
30110,Mission,Georgia
33781,Eustis,Florida
30097,Lawrenceville,Georgia
77065,Suncook,Texas
33603,Chicago,Florida
37921,Knoxville,Tennessee
30265,Newnan,Georgia
8753,Issaquah,New Jersey
33709,Seminole,Florida
33619,Land O' Lakes,Florida
33614,Bradenton,Florida
31406,null,Georgia
35150,null,Alabama
29407,Dorchester,South Carolina
34668,New Port Richey,Florida
34450,Lakeland,Florida
7104,Willingboro,New Jersey
32442,Dothan,Florida
36608,Columbus,Alabama
34275,Venice,Florida
34207,Marietta,Florida
44130,Chagrin Falls,Ohio
28412,Hampstead,North Carolina
30360,Fredericksburg,Georgia
28117,Mooresville,North Carolina
48603,Louisville,Michigan
30511,Columbus,Georgia
29841,Evans,South Carolina
15216,Saint Marys,Pennsylvania
30337,San Jose,Georgia
36606,Gulfport,Alabama
33777,Pinellas Park,Florida
31021,West Sacramento,Georgia
85016,Indianapolis,Arizona
7104,Bear,New Jersey
48603,null,Michigan
34982,Ft. Pierce,Florida
29609,Weaverville,South Carolina
33770,Deltona,Florida
61081,Rock Falls,Illinois
30223,Riverdale,Georgia
33166,Miami,Florida
34614,Inverness,Florida
31008,Macon,Georgia
34207,Lehigh Acres,Florida
29301,Travelers Rest,South Carolina
87107,Albuquerque,New Mexico
34207,Zephyrhills,Florida
28557,null,North Carolina
30337,null,Georgia
27958,Chesapeake,North Carolina
32442,Pensacola,Florida
61081,Freeport,Illinois
30540,Marietta,Georgia
34207,Longboat Key,Florida
33567,Palm Bay,Florida
37421,Whitwell,Tennessee
29609,Chapin,South Carolina
2767,Redmond,Massachusetts
63376,null,Missouri
48603,Phoenix,Michigan
53121,Elmhurst,Wisconsin
48603,Madison Heights,Michigan
48603,Lapeer,Michigan
32055,High Springs,Florida
32303,Bristol,Florida
39531,Biloxi,Mississippi
7104,Rahway,New Jersey
32060,Live Oak,Florida
29501,Kingstree,South Carolina
27603,Raleigh,North Carolina
3051,null,New Hampshire
29730,Hampstead,South Carolina
36801,Birmingham,Alabama
27262,High Point,North Carolina
28677,Salisbury,North Carolina
48603,Petoskey,Michigan
30360,Hampton,Georgia
29170,Covington,South Carolina
48640,Livonia,Michigan
35661,Muscle Shoals,Alabama
34748,Ottawa,Florida
33603,Tampa,Florida
36870,null,Alabama
48603,Northville,Michigan
32216,Port Saint Lucie,Florida
34982,Hazelwood,Florida
34275,Miami,Florida
29053,Charlotte,South Carolina
35405,Birmingham,Alabama
77373,Conroe,Texas
32771,Pompano Beach,Florida
33880,Mulberry,Florida
28083,Kingsland,North Carolina
8210,Mays Landing,New Jersey
34208,Hialeah,Florida
32824,Winter Park,Florida
33770,Staten Island,Florida
32505,Broussard,Florida
72956,Lowell,Arkansas
35216,Prattville,Alabama
33770,Saint Petersburg,Florida
28601,Lenoir,North Carolina
32405,Umatilla,Florida
22312,Portsmouth,Virginia
30075,Clemson,Georgia
45246,null,Ohio
34471,Winter Park,Florida
30501,Gainesville,Georgia
44130,Brunswick,Ohio
37055,null,Tennessee
37421,Nashville,Tennessee
33060,Pompano Beach,Florida
35805,Huntsville,Alabama
34223,Bradenton,Florida
33612,St. Augustine,Florida
36832,Moscow,Alabama
8753,null,New Jersey
27513,Stratford,North Carolina
7104,Monsey,New Jersey
32750,Lake Mary,Florida
29435,Johnsonville,South Carolina
48634,Bay City,Michigan
27549,Washington,North Carolina
31533,Waycross,Georgia
34207,Punta Gorda,Florida
34207,Myakka City,Florida
27592,Goldsboro,North Carolina
33567,Beckley,Florida
48604,Mount Pleasant,Michigan
27357,null,North Carolina
27604,Wake Forest,North Carolina
32804,Orlando,Florida
31535,Norman Park,Georgia
31545,Pembroke,Georgia
38237,Dresden,Tennessee
32505,Allen,Florida
32225,Jacksonville,Florida
31204,Athens,Georgia
34669,Port Richey,Florida
34448,Altamonte Springs,Florida
33604,Tampa,Florida
32308,null,Florida
35661,Killen,Alabama
30901,Augusta,Georgia
45601,Denver,Ohio
28752,Hickory,North Carolina
30135,Augusta,Georgia
32571,Pensacola,Florida
30120,null,Georgia
63376,St Louis,Missouri
61341,null,Illinois
30075,Atlanta,Georgia
30110,Bremen,Georgia
50707,Waterloo,Iowa
30014,Conyers,Georgia
32308,Dallas,Florida
33311,Fort Lauderdale,Florida
27358,Zebulon,North Carolina
28303,null,North Carolina
2132,Tulsa,Massachusetts
60173,Schaumburg,Illinois
32771,Lakeland,Florida
47331,Richmond,Indiana
27513,Portsmouth,North Carolina
34231,Stone Mountain,Florida
7104,Stamford,New Jersey
48603,Detroit,Michigan
35654,Savannah,Alabama
61455,Macomb,Illinois
38116,Alexander,Tennessee
36608,Mobile,Alabama
29651,null,South Carolina
34135,Naples,Florida
39301,Philadelphia,Mississippi
27893,Wilson,North Carolina
32134,Ocala,Florida
33563,Lakeland,Florida
72401,Plainfield,Arkansas
46038,Fishers,Indiana
67601,Hill City,Kansas
35085,null,Alabama
39560,Slidell,Mississippi
32750,Clermont,Florida
32216,Gainesville,Florida
77034,Sandia,Texas
61053,Stockton,Illinois
32534,McDavid,Florida
34205,Naples,Florida
27262,Greensboro,North Carolina
28806,Charlotte,North Carolina
32804,Maitland,Florida
28461,Durham,North Carolina
27603,Chicago,North Carolina
36606,Havana,Alabama
30092,null,Georgia
32548,Fort Walton Beach,Florida
31407,Richmond Hill,Georgia
34684,null,Florida
29841,null,South Carolina
31008,Hawkinsville,Georgia
34787,Chicago,Florida
31516,Waycross,Georgia
31217,Atlanta,Georgia
29651,Atlanta,South Carolina
39507,Tallahassee,Mississippi
7104,Matawan,New Jersey
37660,Elk Grove Village,Tennessee
23235,Charlottesville,Virginia
33770,Bradenton,Florida
30458,null,Georgia
29607,null,South Carolina
39648,McComb,Mississippi
7104,Eatontown,New Jersey
35570,Tuscaloosa,Alabama
31216,Byron,Georgia
29620,Hialeah,South Carolina
32442,Norcross,Florida
27030,Clemmons,North Carolina
30141,Cartersville,Georgia
28906,Waynesville,North Carolina
30824,Eatonton,Georgia
92675,Dana Point,California
34601,North Fort Myers,Florida
38827,San Bruno,Mississippi
33604,Fort Lauderdale,Florida
27263,Holly Springs,North Carolina
33912,Waldorf,Florida
34135,Alajuela,Florida
29651,Clemson,South Carolina
2653,South Portland,Massachusetts
34207,Naperville,Florida
34205,Tampa,Florida
30076,Dallas,Georgia
34207,Clearwater,Florida
53115,null,Wisconsin
30096,Lawrenceville,Georgia
27105,High Point,North Carolina
35501,Cedar Rapids,Alabama
32804,Pensacola,Florida
37311,Nashville,Tennessee
30060,Marietta,Georgia
37211,Murfreesboro,Tennessee
28401,Wilmington,North Carolina
31419,Lee's Summit,Georgia
34669,New Port Richey,Florida
30055,Monticello,Georgia
48603,Grand Rapids,Michigan
53115,Maquoketa,Wisconsin
33982,Fort Myers,Florida
4072,Bedford,Maine
30907,Aiken,Georgia
27104,Kernersville,North Carolina
33844,Wimauma,Florida
33708,Pinellas Park,Florida
29620,Greenwood,South Carolina
53051,Chicago,Wisconsin
80303,Commerce City,Colorado
32405,Altamonte Springs,Florida
94087,Sunnyvale,California
30115,Tampa,Georgia
34471,Saint Cloud,Florida
34601,Saint Petersburg,Florida
31093,Richmond Hill,Georgia
7104,Rensselaer,New Jersey
53045,South Milwaukee,Wisconsin
29607,Augusta,South Carolina
30909,Orlando,Georgia
29435,Walterboro,South Carolina
48603,Glendale,Michigan
29588,Myrtle Beach,South Carolina
39201,Ridgeland,Mississippi
77034,St Louis,Texas
28043,Marietta,North Carolina
27215,Novosibirsk,North Carolina
34450,Tampa,Florida
27828,Lillington,North Carolina
34207,Avon,Florida
27592,East Thetford,North Carolina
29611,Medell√≠n,South Carolina
29609,Greenville,South Carolina
36580,Foley,Alabama
29301,Spartanburg,South Carolina
7104,Newark,New Jersey
32246,Spring Hill,Florida
32444,Lynn Haven,Florida
35080,Birmingham,Alabama
30046,Cleveland,Georgia
33548,Altamonte Springs,Florida
29418,Columbia,South Carolina
37660,Jonesborough,Tennessee
27405,King of Prussia,North Carolina
30513,Franklin,Georgia
30606,Winder,Georgia
33714,Brooklyn,Florida
33770,Paris,Florida
30360,Irving,Georgia
28791,Roswell,North Carolina
30474,Savannah,Georgia
28107,Charlotte,North Carolina
75142,Walkerton,Texas
27513,Greenville,North Carolina
29729,Rockingham,South Carolina
22046,McLean,Virginia
63042,Kansas City,Missouri
7104,Jersey City,New Jersey
35020,Birmingham,Alabama
34669,Jacksonville,Florida
40219,Goshen,Kentucky
45246,Fort Mitchell,Ohio
39201,Brandon,Mississippi
30115,Denham Springs,Georgia
75142,null,Texas
32301,Crawfordville,Florida
32771,Vero Beach,Florida
39507,Mobile,Mississippi
28358,Morehead City,North Carolina
30060,Kathleen,Georgia
36203,Lilburn,Alabama
31093,Smyrna,Georgia
48603,Holly,Michigan
29645,Lyman,South Carolina
77598,Edinburg,Texas
28311,Clayton,North Carolina
34207,Lakeland,Florida
32055,Melrose,Florida
29829,Potomac,South Carolina
28202,Charlotte,North Carolina
33770,Lady Lake,Florida
7104,Charleston,New Jersey
28562,Morehead City,North Carolina
32114,Hialeah,Florida
33825,Forney,Florida
30075,Lithonia,Georgia
34748,Pompano Beach,Florida
30096,Atlanta,Georgia
32571,Baton Rouge,Florida
37421,Harold,Tennessee
28731,Hendersonville,North Carolina
33612,Lake City,Florida
30060,Layton,Georgia
24210,Elizabethton,Virginia
22302,Suitland,Virginia
33709,Winter Garden,Florida
29645,Laurens,South Carolina
30060,Union City,Georgia
27604,Elk Grove Village,North Carolina
77598,Houston,Texas
7104,Weehawken,New Jersey
30906,Stone Mountain,Georgia
50131,Des Moines,Iowa
36567,Houston,Alabama
39507,Bay Saint Louis,Mississippi
34207,Ellenton,Florida
7104,Queens Village,New Jersey
30248,Fayetteville,Georgia
28303,Spring Lake,North Carolina
32808,Winter Garden,Florida
30076,Gwinner,Georgia
7104,Englewood,New Jersey
27610,Wilson,North Carolina
37814,null,Tennessee
27856,Raleigh,North Carolina
30907,null,Georgia
30114,Atlanta,Georgia
27856,Rocky Mount,North Carolina
4072,null,Maine
33901,Naples,Florida
31216,Marietta,Georgia
29649,Greenwood,South Carolina
60106,null,Illinois
42420,Owensboro,Kentucky
29609,Simpsonville,South Carolina
32534,Semmes,Florida
32040,Jacksonville,Florida
92675,Oshkosh,California
34207,Arcadia,Florida
53045,Mukwonago,Wisconsin
33566,Tampa,Florida
33770,The Bronx,Florida
33770,Livingston,Florida
33612,Jacksonville,Florida
28791,Greenville,North Carolina
27405,Mount Airy,North Carolina
27215,Greensboro,North Carolina
31204,null,Georgia
31032,Milledgeville,Georgia
22302,Lanham,Virginia
37421,Roswell,Tennessee
53045,Benton,Wisconsin
33825,Palm City,Florida
30060,East Brunswick,Georgia
34601,Port Richey,Florida
34475,Maitland,Florida
36867,Saint Petersburg,Alabama
53115,Madison,Wisconsin
31701,Albany,Georgia
39301,Germantown,Mississippi
30281,null,Georgia
32216,Chester,Florida
34689,Palm Harbor,Florida
33619,Lakeland,Florida
7104,Pottstown,New Jersey
36870,Opelika,Alabama
27513,Garner,North Carolina
33614,Inverness,Florida
77034,Tomball,Texas
61341,Ocean View,Illinois
27603,Durham,North Carolina
67301,Parsons,Kansas
33619,North Port,Florida
27030,Greensboro,North Carolina
22046,Upper Marlboro,Virginia
30075,Covington,Georgia
33612,Tampa,Florida
33801,Tampa,Florida
37209,Antioch,Tennessee
32566,Pensacola,Florida
34761,Ocoee,Florida
30341,Prospect,Georgia
39301,Starkville,Mississippi
1852,Seattle,Massachusetts
34243,Tallahassee,Florida
30126,Atlanta,Georgia
28461,Bolivia,North Carolina
34207,Belgrade,Florida
31406,Savannah,Georgia
62801,Salem,Illinois
35501,Oneonta,Alabama
28806,Easley,North Carolina
27596,Kill Devil Hills,North Carolina
30093,Alpharetta,Georgia
32578,Destin,Florida
29651,Jefferson,South Carolina
33770,Warren Township,Florida
30747,Canton,Georgia
28792,Hendersonville,North Carolina
39051,Kosciusko,Mississippi
67216,Wichita,Kansas
30115,Knoxville,Georgia
33311,Miami,Florida
35080,Bremen,Alabama
7104,Williston,New Jersey
30253,Atlanta,Georgia
34475,Beverly Hills,Florida
27403,null,North Carolina
30046,Atlanta,Georgia
34243,Ladson,Florida
33709,Orlando,Florida
31032,Fitzgerald,Georgia
30161,Dallas,Georgia
29671,Belgrade,South Carolina
29720,Louisville,South Carolina
28273,Durham,North Carolina
38583,Lafayette,Tennessee
29732,Mauldin,South Carolina
38330,Decaturville,Tennessee
29418,null,South Carolina
32308,Havana,Florida
61455,Washington,Illinois
34982,Aurora,Florida
44130,Cleveland,Ohio
31324,Savannah,Georgia
1852,Lancaster,Massachusetts
29456,Summerville,South Carolina
29376,Asheville,South Carolina
33614,Altamonte Springs,Florida
30046,Morrow,Georgia
27596,null,North Carolina
18915,Royersford,Pennsylvania
39531,Gulfport,Mississippi
28461,Supply,North Carolina
27834,Asheboro,North Carolina
37421,Hixson,Tennessee
32303,Mt. Pleasant,Florida
33523,Dade City,Florida
27405,McLeansville,North Carolina
29526,North Myrtle Beach,South Carolina
37311,Chattanooga,Tennessee
31503,Atlanta,Georgia
30458,Hinesville,Georgia
30126,Roswell,Georgia
32578,Niceville,Florida
32609,League City,Florida
27105,Mocksville,North Carolina
29732,Ashland,South Carolina
29731,Rock Hill,South Carolina
27604,Knightdale,North Carolina
60543,Chicago,Illinois
27603,Wilmington,North Carolina
77598,New Westminster,Texas
33614,Lakeland,Florida
8210,North Andover,New Jersey
32246,Athens,Florida
28806,Duluth,North Carolina
37421,Soddy-Daisy,Tennessee
7104,Little Falls,New Jersey
30901,Chicopee,Georgia
61081,DeKalb,Illinois
30319,Marietta,Georgia
34207,Westerly,Florida
20176,Annandale,Virginia
32839,Bradenton,Florida
33023,Palm Beach Gardens,Florida
34207,Seminole,Florida
30016,Lithonia,Georgia
28212,Cornelius,North Carolina
27215,Mocksville,North Carolina
34748,Louisville,Florida
29645,Enoree,South Carolina
7104,Hillside,New Jersey
38330,Humboldt,Tennessee
48603,Marquette,Michigan
32304,Tallahassee,Florida
34448,Summerfield,Florida
28110,Sylva,North Carolina
38834,Olive Branch,Mississippi
42303,Owensboro,Kentucky
28601,Charlotte,North Carolina
30115,Cumming,Georgia
34231,Punta Gorda,Florida
31501,Apopka,Georgia
7104,Bethesda,New Jersey
48603,Tawas City,Michigan
29170,Leesville,South Carolina
29732,Medford,South Carolina
28110,Ashland,North Carolina
33781,Apopka,Florida
32750,St. Augustine,Florida
32060,Alachua,Florida
33714,Apopka,Florida
33563,null,Florida
30474,Fitzgerald,Georgia
37055,Mount Juliet,Tennessee
77034,Port Neches,Texas
29461,Summerville,South Carolina
28303,Fayetteville,North Carolina
30540,Ball Ground,Georgia
33523,Clearwater,Florida
32043,Orange Park,Florida
29645,Fort Mill,South Carolina
18915,Camden,Pennsylvania
34231,null,Florida
48603,Stratham,Michigan
29645,Hendersonville,South Carolina
28730,Fredericksburg,North Carolina
32205,Jacksonville,Florida
31757,Nicholasville,Georgia
28412,Buford,North Carolina
32233,Lake City,Florida
27260,Winston-Salem,North Carolina
37421,Marietta,Tennessee
30360,Montgomery,Georgia
29649,Southern Pines,South Carolina
33781,Byron,Florida
37421,Madison,Tennessee
32405,Graceville,Florida
32824,Orlando,Florida
22302,null,Virginia
27592,Spring Lake,North Carolina
30134,Louisville,Georgia
64116,Cleveland,Missouri
28806,Waynesville,North Carolina
39507,Biloxi,Mississippi
74145,Claremore,Oklahoma
53115,Delavan,Wisconsin
28401,Greensboro,North Carolina
28806,Taylorsville,North Carolina
27030,Raleigh,North Carolina
8037,Tuckerton,New Jersey
33064,Greenwood,Florida
28677,Chicago,North Carolina
29728,Matthews,South Carolina
28574,Kenly,North Carolina
7104,Athens,New Jersey
39507,Daphne,Mississippi
